{
  "type": "FeatureCollection",
  "features": [
    {
      "type": "Feature",
      "geometry": null,
      "properties": {
        "article_id": "https://kiowacountypress.net/content/exceptional-drought-eases-western-colorado-severe-conditions-expand-eastern-plains",
        "title": "Exceptional drought eases in western Colorado as severe conditions expand on eastern plains",
        "snippet": "",
        "url": "https://kiowacountypress.net/content/exceptional-drought-eases-western-colorado-severe-conditions-expand-eastern-plains",
        "source": "Kiowa County Press",
        "published_at": "05/03/2026, 05:19 PM, +0000 UTC",
        "wire": "drought",
        "fetched_at": "2026-05-04T16:21:04.221632+00:00",
        "mention_text": null,
        "osm_display": null,
        "osm_type": null,
        "geocoded": false,
        "event_type": "exceptional_drought",
        "usdm_dm_category": null,
        "usdm_dm_label": null,
        "usdm_in_drought": null,
        "run_at": "2026-05-04T16:24:53.264824+00:00"
      }
    },
    {
      "type": "Feature",
      "geometry": null,
      "properties": {
        "article_id": "https://ecology.wa.gov/about-us/who-we-are/news/2026/april-8-statewide-drought-declared-due-to-dismal-snowpack",
        "title": "April 8 - Statewide drought declared due to dismal snowpack",
        "snippet": "",
        "url": "https://ecology.wa.gov/about-us/who-we-are/news/2026/april-8-statewide-drought-declared-due-to-dismal-snowpack",
        "source": "Department of Ecology - State of Washington (.gov)",
        "published_at": "04/08/2026, 07:00 AM, +0000 UTC",
        "wire": "drought",
        "fetched_at": "2026-05-04T16:21:04.221632+00:00",
        "mention_text": null,
        "osm_display": null,
        "osm_type": null,
        "geocoded": false,
        "event_type": "drought_event",
        "usdm_dm_category": null,
        "usdm_dm_label": null,
        "usdm_in_drought": null,
        "run_at": "2026-05-04T16:24:53.264824+00:00"
      }
    },
    {
      "type": "Feature",
      "geometry": null,
      "properties": {
        "article_id": "https://www.drought.gov/news/western-drought-issue-2025-09-03",
        "title": "The Western Drought Issue | September 3, 2025",
        "snippet": "",
        "url": "https://www.drought.gov/news/western-drought-issue-2025-09-03",
        "source": "Drought.gov",
        "published_at": "09/03/2025, 07:00 AM, +0000 UTC",
        "wire": "drought",
        "fetched_at": "2026-05-04T16:21:04.221632+00:00",
        "mention_text": null,
        "osm_display": null,
        "osm_type": null,
        "geocoded": false,
        "event_type": "drought_event",
        "usdm_dm_category": null,
        "usdm_dm_label": null,
        "usdm_in_drought": null,
        "run_at": "2026-05-04T16:24:53.264824+00:00"
      }
    },
    {
      "type": "Feature",
      "geometry": null,
      "properties": {
        "article_id": "https://www.theweathernetwork.com/en/news/weather/forecasts/will-canadas-chilly-pattern-help-bust-floridas-exceptional-drought",
        "title": "Will Canada\u2019s chilly pattern help bust Florida\u2019s exceptional drought?",
        "snippet": "",
        "url": "https://www.theweathernetwork.com/en/news/weather/forecasts/will-canadas-chilly-pattern-help-bust-floridas-exceptional-drought",
        "source": "The Weather Network",
        "published_at": "05/01/2026, 09:43 PM, +0000 UTC",
        "wire": "drought",
        "fetched_at": "2026-05-04T16:21:04.221632+00:00",
        "mention_text": null,
        "osm_display": null,
        "osm_type": null,
        "geocoded": false,
        "event_type": "exceptional_drought",
        "usdm_dm_category": null,
        "usdm_dm_label": null,
        "usdm_in_drought": null,
        "run_at": "2026-05-04T16:24:53.264824+00:00"
      }
    },
    {
      "type": "Feature",
      "geometry": null,
      "properties": {
        "article_id": "https://www.kuow.org/stories/another-year-another-drought-emergency-declared-in-washington-state",
        "title": "Another year, another drought emergency declared in Washington state",
        "snippet": "",
        "url": "https://www.kuow.org/stories/another-year-another-drought-emergency-declared-in-washington-state",
        "source": "KUOW",
        "published_at": "04/08/2026, 07:00 AM, +0000 UTC",
        "wire": "drought",
        "fetched_at": "2026-05-04T16:21:04.221632+00:00",
        "mention_text": null,
        "osm_display": null,
        "osm_type": null,
        "geocoded": false,
        "event_type": "drought_declaration",
        "usdm_dm_category": null,
        "usdm_dm_label": null,
        "usdm_in_drought": null,
        "run_at": "2026-05-04T16:24:53.264824+00:00"
      }
    },
    {
      "type": "Feature",
      "geometry": null,
      "properties": {
        "article_id": "https://www.agweb.com/weather/60-u-s-now-facing-moderate-exceptional-drought",
        "title": "60% of U.S. Now Facing Moderate to Exceptional Drought",
        "snippet": "",
        "url": "https://www.agweb.com/weather/60-u-s-now-facing-moderate-exceptional-drought",
        "source": "AgWeb",
        "published_at": "04/19/2026, 07:00 AM, +0000 UTC",
        "wire": "drought",
        "fetched_at": "2026-05-04T16:21:04.221632+00:00",
        "mention_text": null,
        "osm_display": null,
        "osm_type": null,
        "geocoded": false,
        "event_type": "exceptional_drought",
        "usdm_dm_category": null,
        "usdm_dm_label": null,
        "usdm_in_drought": null,
        "run_at": "2026-05-04T16:24:53.264824+00:00"
      }
    },
    {
      "type": "Feature",
      "geometry": null,
      "properties": {
        "article_id": "https://www.kxly.com/news/washington-declares-statewide-drought-emergency-as-snowpack-reaches-critically-low-levels/article_1b1daf6e-0e1e-41ae-a24c-61bd66077803.html",
        "title": "Washington declares statewide drought emergency as snowpack reaches critically low levels",
        "snippet": "",
        "url": "https://www.kxly.com/news/washington-declares-statewide-drought-emergency-as-snowpack-reaches-critically-low-levels/article_1b1daf6e-0e1e-41ae-a24c-61bd66077803.html",
        "source": "KXLY.com",
        "published_at": "04/08/2026, 07:00 AM, +0000 UTC",
        "wire": "drought",
        "fetched_at": "2026-05-04T16:21:04.221632+00:00",
        "mention_text": null,
        "osm_display": null,
        "osm_type": null,
        "geocoded": false,
        "event_type": "drought_declaration",
        "usdm_dm_category": null,
        "usdm_dm_label": null,
        "usdm_in_drought": null,
        "run_at": "2026-05-04T16:24:53.264824+00:00"
      }
    },
    {
      "type": "Feature",
      "geometry": null,
      "properties": {
        "article_id": "https://magnoliatribune.com/2026/04/23/moderate-to-exceptional-drought-conditions-seen-throughout-mississippi/",
        "title": "Moderate to exceptional drought conditions seen throughout Mississippi",
        "snippet": "",
        "url": "https://magnoliatribune.com/2026/04/23/moderate-to-exceptional-drought-conditions-seen-throughout-mississippi/",
        "source": "Magnolia Tribune",
        "published_at": "04/23/2026, 07:00 AM, +0000 UTC",
        "wire": "drought",
        "fetched_at": "2026-05-04T16:21:04.221632+00:00",
        "mention_text": null,
        "osm_display": null,
        "osm_type": null,
        "geocoded": false,
        "event_type": "exceptional_drought",
        "usdm_dm_category": null,
        "usdm_dm_label": null,
        "usdm_in_drought": null,
        "run_at": "2026-05-04T16:24:53.264824+00:00"
      }
    },
    {
      "type": "Feature",
      "geometry": null,
      "properties": {
        "article_id": "https://kpq.com/wa-drought-dclaration-fourth-year/",
        "title": "Dept. Of Ecology Declares Drought For Washington State for Fourth Consecutive Year",
        "snippet": "",
        "url": "https://kpq.com/wa-drought-dclaration-fourth-year/",
        "source": "NewsRadio 560 KPQ",
        "published_at": "04/09/2026, 07:27 PM, +0000 UTC",
        "wire": "drought",
        "fetched_at": "2026-05-04T16:21:04.221632+00:00",
        "mention_text": null,
        "osm_display": null,
        "osm_type": null,
        "geocoded": false,
        "event_type": "drought_event",
        "usdm_dm_category": null,
        "usdm_dm_label": null,
        "usdm_in_drought": null,
        "run_at": "2026-05-04T16:24:53.264824+00:00"
      }
    },
    {
      "type": "Feature",
      "geometry": null,
      "properties": {
        "article_id": "https://blog.ucs.org/mrama-poccia/ask-a-scientist-how-do-we-solve-californias-water-shortage-crisis/",
        "title": "Ask a Scientist: How Do We Solve California\u2019s Water Shortage Crisis?",
        "snippet": "",
        "url": "https://blog.ucs.org/mrama-poccia/ask-a-scientist-how-do-we-solve-californias-water-shortage-crisis/",
        "source": "The Equation - Union of Concerned Scientists",
        "published_at": "10/16/2025, 07:00 AM, +0000 UTC",
        "wire": "drought",
        "fetched_at": "2026-05-04T16:21:04.221632+00:00",
        "mention_text": null,
        "osm_display": null,
        "osm_type": null,
        "geocoded": false,
        "event_type": "water_shortage",
        "usdm_dm_category": null,
        "usdm_dm_label": null,
        "usdm_in_drought": null,
        "run_at": "2026-05-04T16:24:53.264824+00:00"
      }
    },
    {
      "type": "Feature",
      "geometry": null,
      "properties": {
        "article_id": "https://idahobusinessreview.com/2026/04/15/idaho-declares-statewide-drought-emergency-record-low-snowpack/",
        "title": "Idaho declares statewide drought emergency after record-low snowpack",
        "snippet": "",
        "url": "https://idahobusinessreview.com/2026/04/15/idaho-declares-statewide-drought-emergency-record-low-snowpack/",
        "source": "Idaho Business Review",
        "published_at": "04/15/2026, 07:00 AM, +0000 UTC",
        "wire": "drought",
        "fetched_at": "2026-05-04T16:21:04.221632+00:00",
        "mention_text": null,
        "osm_display": null,
        "osm_type": null,
        "geocoded": false,
        "event_type": "drought_declaration",
        "usdm_dm_category": null,
        "usdm_dm_label": null,
        "usdm_in_drought": null,
        "run_at": "2026-05-04T16:24:53.264824+00:00"
      }
    },
    {
      "type": "Feature",
      "geometry": null,
      "properties": {
        "article_id": "https://www.lmtribune.com/local-news/idaho-declares-statewide-drought-emergency-a52b63dd",
        "title": "Idaho declares statewide drought emergency",
        "snippet": "",
        "url": "https://www.lmtribune.com/local-news/idaho-declares-statewide-drought-emergency-a52b63dd",
        "source": "The Lewiston Tribune",
        "published_at": "04/15/2026, 07:00 AM, +0000 UTC",
        "wire": "drought",
        "fetched_at": "2026-05-04T16:21:04.221632+00:00",
        "mention_text": null,
        "osm_display": null,
        "osm_type": null,
        "geocoded": false,
        "event_type": "drought_declaration",
        "usdm_dm_category": null,
        "usdm_dm_label": null,
        "usdm_in_drought": null,
        "run_at": "2026-05-04T16:24:53.264824+00:00"
      }
    },
    {
      "type": "Feature",
      "geometry": null,
      "properties": {
        "article_id": "https://www.opb.org/article/2026/04/02/jackson-county-oregon-drought-emergency/",
        "title": "Jackson County declares drought emergency in anticipation of dry summer",
        "snippet": "",
        "url": "https://www.opb.org/article/2026/04/02/jackson-county-oregon-drought-emergency/",
        "source": "Oregon Public Broadcasting - OPB",
        "published_at": "04/02/2026, 07:00 AM, +0000 UTC",
        "wire": "drought",
        "fetched_at": "2026-05-04T16:21:04.221632+00:00",
        "mention_text": null,
        "osm_display": null,
        "osm_type": null,
        "geocoded": false,
        "event_type": "drought_declaration",
        "usdm_dm_category": null,
        "usdm_dm_label": null,
        "usdm_in_drought": null,
        "run_at": "2026-05-04T16:24:53.264824+00:00"
      }
    },
    {
      "type": "Feature",
      "geometry": null,
      "properties": {
        "article_id": "https://www.nytimes.com/2026/02/02/opinion/water-shortage-colorado-river.html",
        "title": "Opinion | These Four States Are in Denial Over a Looming Water Crisis",
        "snippet": "",
        "url": "https://www.nytimes.com/2026/02/02/opinion/water-shortage-colorado-river.html",
        "source": "The New York Times",
        "published_at": "02/02/2026, 08:00 AM, +0000 UTC",
        "wire": "drought",
        "fetched_at": "2026-05-04T16:21:04.221632+00:00",
        "mention_text": null,
        "osm_display": null,
        "osm_type": null,
        "geocoded": false,
        "event_type": "drought_event",
        "usdm_dm_category": null,
        "usdm_dm_label": null,
        "usdm_in_drought": null,
        "run_at": "2026-05-04T16:24:53.264824+00:00"
      }
    },
    {
      "type": "Feature",
      "geometry": null,
      "properties": {
        "article_id": "https://education.nationalgeographic.org/resource/explorer-caitlin-ochs/",
        "title": "Caitlin Ochs Documents the Colorado River\u2019s Water Shortage Crisis",
        "snippet": "",
        "url": "https://education.nationalgeographic.org/resource/explorer-caitlin-ochs/",
        "source": "National Geographic Society",
        "published_at": "01/14/2026, 08:00 AM, +0000 UTC",
        "wire": "drought",
        "fetched_at": "2026-05-04T16:21:04.221632+00:00",
        "mention_text": null,
        "osm_display": null,
        "osm_type": null,
        "geocoded": false,
        "event_type": "water_shortage",
        "usdm_dm_category": null,
        "usdm_dm_label": null,
        "usdm_in_drought": null,
        "run_at": "2026-05-04T16:24:53.264824+00:00"
      }
    },
    {
      "type": "Feature",
      "geometry": null,
      "properties": {
        "article_id": "https://www.agriculture.com/5-corn-states-enter-2026-with-extreme-or-exceptional-drought-11882929",
        "title": "5 Corn States Enter 2026 With Extreme or Exceptional Drought",
        "snippet": "",
        "url": "https://www.agriculture.com/5-corn-states-enter-2026-with-extreme-or-exceptional-drought-11882929",
        "source": "Successful Farming",
        "published_at": "01/09/2026, 08:00 AM, +0000 UTC",
        "wire": "drought",
        "fetched_at": "2026-05-04T16:21:04.221632+00:00",
        "mention_text": null,
        "osm_display": null,
        "osm_type": null,
        "geocoded": false,
        "event_type": "exceptional_drought",
        "usdm_dm_category": null,
        "usdm_dm_label": null,
        "usdm_in_drought": null,
        "run_at": "2026-05-04T16:24:53.264824+00:00"
      }
    },
    {
      "type": "Feature",
      "geometry": null,
      "properties": {
        "article_id": "https://www.bbc.com/news/articles/c0epzp21z47o",
        "title": "The deepening water shortage row between the US and Mexico",
        "snippet": "",
        "url": "https://www.bbc.com/news/articles/c0epzp21z47o",
        "source": "BBC",
        "published_at": "07/13/2025, 07:00 AM, +0000 UTC",
        "wire": "drought",
        "fetched_at": "2026-05-04T16:21:04.221632+00:00",
        "mention_text": null,
        "osm_display": null,
        "osm_type": null,
        "geocoded": false,
        "event_type": "water_shortage",
        "usdm_dm_category": null,
        "usdm_dm_label": null,
        "usdm_in_drought": null,
        "run_at": "2026-05-04T16:24:53.264824+00:00"
      }
    },
    {
      "type": "Feature",
      "geometry": null,
      "properties": {
        "article_id": "https://www.yahoo.com/news/articles/southeast-wildfires-explode-florida-georgia-190000021.html",
        "title": "Southeast faces explosive wildfire activity despite recent rainfall due to exceptional drought",
        "snippet": "",
        "url": "https://www.yahoo.com/news/articles/southeast-wildfires-explode-florida-georgia-190000021.html",
        "source": "Yahoo",
        "published_at": "04/27/2026, 07:00 PM, +0000 UTC",
        "wire": "drought",
        "fetched_at": "2026-05-04T16:21:04.221632+00:00",
        "mention_text": null,
        "osm_display": null,
        "osm_type": null,
        "geocoded": false,
        "event_type": "exceptional_drought",
        "usdm_dm_category": null,
        "usdm_dm_label": null,
        "usdm_in_drought": null,
        "run_at": "2026-05-04T16:24:53.264824+00:00"
      }
    },
    {
      "type": "Feature",
      "geometry": null,
      "properties": {
        "article_id": "https://ecology.wa.gov/about-us/who-we-are/news/2025/june-5-drought",
        "title": "Drought expanded to 19 more watersheds",
        "snippet": "",
        "url": "https://ecology.wa.gov/about-us/who-we-are/news/2025/june-5-drought",
        "source": "Department of Ecology - State of Washington (.gov)",
        "published_at": "06/05/2025, 07:00 AM, +0000 UTC",
        "wire": "drought",
        "fetched_at": "2026-05-04T16:21:04.221632+00:00",
        "mention_text": null,
        "osm_display": null,
        "osm_type": null,
        "geocoded": false,
        "event_type": "drought_event",
        "usdm_dm_category": null,
        "usdm_dm_label": null,
        "usdm_in_drought": null,
        "run_at": "2026-05-04T16:24:53.264824+00:00"
      }
    },
    {
      "type": "Feature",
      "geometry": null,
      "properties": {
        "article_id": "https://www.theledger.com/story/opinion/letters/2026/04/26/water-shortage-apparently-not-for-major-bottlers-voice-april-26/89750200007/",
        "title": "Water shortage? Apparently not for major bottlers (Voice, April 26)",
        "snippet": "",
        "url": "https://www.theledger.com/story/opinion/letters/2026/04/26/water-shortage-apparently-not-for-major-bottlers-voice-april-26/89750200007/",
        "source": "Lakeland Ledger",
        "published_at": "04/26/2026, 09:02 AM, +0000 UTC",
        "wire": "drought",
        "fetched_at": "2026-05-04T16:21:04.221632+00:00",
        "mention_text": null,
        "osm_display": null,
        "osm_type": null,
        "geocoded": false,
        "event_type": "water_shortage",
        "usdm_dm_category": null,
        "usdm_dm_label": null,
        "usdm_in_drought": null,
        "run_at": "2026-05-04T16:24:53.264824+00:00"
      }
    },
    {
      "type": "Feature",
      "geometry": null,
      "properties": {
        "article_id": "https://www.wctv.tv/2025/11/20/exceptional-drought-develops-parts-big-bend-south-georgia/",
        "title": "Exceptional drought develops for parts of Big Bend and South Georgia",
        "snippet": "",
        "url": "https://www.wctv.tv/2025/11/20/exceptional-drought-develops-parts-big-bend-south-georgia/",
        "source": "WCTV",
        "published_at": "11/20/2025, 08:00 AM, +0000 UTC",
        "wire": "drought",
        "fetched_at": "2026-05-04T16:21:04.221632+00:00",
        "mention_text": null,
        "osm_display": null,
        "osm_type": null,
        "geocoded": false,
        "event_type": "exceptional_drought",
        "usdm_dm_category": null,
        "usdm_dm_label": null,
        "usdm_in_drought": null,
        "run_at": "2026-05-04T16:24:53.264824+00:00"
      }
    },
    {
      "type": "Feature",
      "geometry": null,
      "properties": {
        "article_id": "https://www.ncei.noaa.gov/news/us-drought-monthly-changes-and-impacts-august-2025",
        "title": "U.S. Drought: Monthly Changes and Impacts for August 2025",
        "snippet": "",
        "url": "https://www.ncei.noaa.gov/news/us-drought-monthly-changes-and-impacts-august-2025",
        "source": "NOAA National Centers for Environmental Information (NCEI) (.gov)",
        "published_at": "08/28/2025, 07:00 AM, +0000 UTC",
        "wire": "drought",
        "fetched_at": "2026-05-04T16:21:04.221632+00:00",
        "mention_text": null,
        "osm_display": null,
        "osm_type": null,
        "geocoded": false,
        "event_type": "drought_event",
        "usdm_dm_category": null,
        "usdm_dm_label": null,
        "usdm_in_drought": null,
        "run_at": "2026-05-04T16:24:53.264824+00:00"
      }
    },
    {
      "type": "Feature",
      "geometry": null,
      "properties": {
        "article_id": "https://www.wuft.org/weather/2026-02-12/south-floridas-water-shortage-whats-the-rain-outlook?_amp=true",
        "title": "South Florida's water shortage: what's the rain outlook?",
        "snippet": "",
        "url": "https://www.wuft.org/weather/2026-02-12/south-floridas-water-shortage-whats-the-rain-outlook?_amp=true",
        "source": "WUFT",
        "published_at": "02/12/2026, 06:00 AM, +0000 UTC",
        "wire": "drought",
        "fetched_at": "2026-05-04T16:21:04.221632+00:00",
        "mention_text": null,
        "osm_display": null,
        "osm_type": null,
        "geocoded": false,
        "event_type": "water_shortage",
        "usdm_dm_category": null,
        "usdm_dm_label": null,
        "usdm_in_drought": null,
        "run_at": "2026-05-04T16:24:53.264824+00:00"
      }
    },
    {
      "type": "Feature",
      "geometry": null,
      "properties": {
        "article_id": "https://www.ncei.noaa.gov/news/us-drought-monthly-report-June-2025",
        "title": "U.S. Drought: Monthly Changes and Impacts for June 2025",
        "snippet": "",
        "url": "https://www.ncei.noaa.gov/news/us-drought-monthly-report-June-2025",
        "source": "NOAA National Centers for Environmental Information (NCEI) (.gov)",
        "published_at": "06/26/2025, 07:00 AM, +0000 UTC",
        "wire": "drought",
        "fetched_at": "2026-05-04T16:21:04.221632+00:00",
        "mention_text": null,
        "osm_display": null,
        "osm_type": null,
        "geocoded": false,
        "event_type": "drought_event",
        "usdm_dm_category": null,
        "usdm_dm_label": null,
        "usdm_in_drought": null,
        "run_at": "2026-05-04T16:24:53.264824+00:00"
      }
    },
    {
      "type": "Feature",
      "geometry": null,
      "properties": {
        "article_id": "https://www.cfpublic.org/environment/2026-02-10/district-declare-water-shortage-marion-sumter-counties",
        "title": "District declares water shortage extending to all of Marion, Sumter counties",
        "snippet": "",
        "url": "https://www.cfpublic.org/environment/2026-02-10/district-declare-water-shortage-marion-sumter-counties",
        "source": "Central Florida Public Media",
        "published_at": "02/10/2026, 08:00 AM, +0000 UTC",
        "wire": "drought",
        "fetched_at": "2026-05-04T16:21:04.221632+00:00",
        "mention_text": null,
        "osm_display": null,
        "osm_type": null,
        "geocoded": false,
        "event_type": "water_shortage",
        "usdm_dm_category": null,
        "usdm_dm_label": null,
        "usdm_in_drought": null,
        "run_at": "2026-05-04T16:24:53.264824+00:00"
      }
    },
    {
      "type": "Feature",
      "geometry": null,
      "properties": {
        "article_id": "https://insideclimatenews.org/news/08032026/after-a-decade-of-missteps-a-texas-city-careens-toward-a-water-shortage-catastrophe/",
        "title": "After a Decade of Missteps, a Texas City Careens Toward a Water-Shortage Catastrophe",
        "snippet": "",
        "url": "https://insideclimatenews.org/news/08032026/after-a-decade-of-missteps-a-texas-city-careens-toward-a-water-shortage-catastrophe/",
        "source": "Inside Climate News",
        "published_at": "03/08/2026, 08:00 AM, +0000 UTC",
        "wire": "drought",
        "fetched_at": "2026-05-04T16:21:04.221632+00:00",
        "mention_text": null,
        "osm_display": null,
        "osm_type": null,
        "geocoded": false,
        "event_type": "drought_event",
        "usdm_dm_category": null,
        "usdm_dm_label": null,
        "usdm_in_drought": null,
        "run_at": "2026-05-04T16:24:53.264824+00:00"
      }
    },
    {
      "type": "Feature",
      "geometry": null,
      "properties": {
        "article_id": "https://www.yahoo.com/news/articles/officials-sound-alarm-looming-water-020000521.html",
        "title": "Officials sound alarm as looming water shortage could strike US city within weeks",
        "snippet": "",
        "url": "https://www.yahoo.com/news/articles/officials-sound-alarm-looming-water-020000521.html",
        "source": "Yahoo",
        "published_at": "03/23/2026, 07:00 AM, +0000 UTC",
        "wire": "drought",
        "fetched_at": "2026-05-04T16:21:04.221632+00:00",
        "mention_text": null,
        "osm_display": null,
        "osm_type": null,
        "geocoded": false,
        "event_type": "water_shortage",
        "usdm_dm_category": null,
        "usdm_dm_label": null,
        "usdm_in_drought": null,
        "run_at": "2026-05-04T16:24:53.264824+00:00"
      }
    },
    {
      "type": "Feature",
      "geometry": null,
      "properties": {
        "article_id": "https://www.yahoo.com/news/articles/officials-implement-phase-ii-amid-003000400.html",
        "title": "Officials implement 'Phase II' amid severe water shortage: 'Maybe they shouldn't have built all those new apartments and houses'",
        "snippet": "",
        "url": "https://www.yahoo.com/news/articles/officials-implement-phase-ii-amid-003000400.html",
        "source": "Yahoo",
        "published_at": "03/13/2026, 07:00 AM, +0000 UTC",
        "wire": "drought",
        "fetched_at": "2026-05-04T16:21:04.221632+00:00",
        "mention_text": null,
        "osm_display": null,
        "osm_type": null,
        "geocoded": false,
        "event_type": "water_shortage",
        "usdm_dm_category": null,
        "usdm_dm_label": null,
        "usdm_in_drought": null,
        "run_at": "2026-05-04T16:24:53.264824+00:00"
      }
    },
    {
      "type": "Feature",
      "geometry": null,
      "properties": {
        "article_id": "https://www.palmbeachpost.com/story/weather/2026/02/20/florida-burn-bans-wildfires-water-shortage-orders-extreme-drought-ranks-worse-in-nation/88764223007/",
        "title": "Parched Florida now most drought-stricken state and is feeling effects",
        "snippet": "",
        "url": "https://www.palmbeachpost.com/story/weather/2026/02/20/florida-burn-bans-wildfires-water-shortage-orders-extreme-drought-ranks-worse-in-nation/88764223007/",
        "source": "The Palm Beach Post",
        "published_at": "02/20/2026, 08:00 AM, +0000 UTC",
        "wire": "drought",
        "fetched_at": "2026-05-04T16:21:04.221632+00:00",
        "mention_text": null,
        "osm_display": null,
        "osm_type": null,
        "geocoded": false,
        "event_type": "drought_event",
        "usdm_dm_category": null,
        "usdm_dm_label": null,
        "usdm_in_drought": null,
        "run_at": "2026-05-04T16:24:53.264824+00:00"
      }
    },
    {
      "type": "Feature",
      "geometry": null,
      "properties": {
        "article_id": "https://www.newsweek.com/water-shortage-warning-colorado-river-extreme-heat-warning-drought-11685165",
        "title": "Water Shortage Warning Issued for 40 Million People",
        "snippet": "",
        "url": "https://www.newsweek.com/water-shortage-warning-colorado-river-extreme-heat-warning-drought-11685165",
        "source": "Newsweek",
        "published_at": "03/16/2026, 07:00 AM, +0000 UTC",
        "wire": "drought",
        "fetched_at": "2026-05-04T16:21:04.221632+00:00",
        "mention_text": null,
        "osm_display": null,
        "osm_type": null,
        "geocoded": false,
        "event_type": "water_shortage",
        "usdm_dm_category": null,
        "usdm_dm_label": null,
        "usdm_in_drought": null,
        "run_at": "2026-05-04T16:24:53.264824+00:00"
      }
    },
    {
      "type": "Feature",
      "geometry": null,
      "properties": {
        "article_id": "https://post-register.com/u-s-mexico-reach-long-sought-after-water-shortage-agreement-under-1944-treaty/",
        "title": "U.S., Mexico reach long-sought after water shortage agreement under 1944 treaty",
        "snippet": "",
        "url": "https://post-register.com/u-s-mexico-reach-long-sought-after-water-shortage-agreement-under-1944-treaty/",
        "source": "Lockhart Post Register",
        "published_at": "01/08/2026, 08:00 AM, +0000 UTC",
        "wire": "drought",
        "fetched_at": "2026-05-04T16:21:04.221632+00:00",
        "mention_text": null,
        "osm_display": null,
        "osm_type": null,
        "geocoded": false,
        "event_type": "water_shortage",
        "usdm_dm_category": null,
        "usdm_dm_label": null,
        "usdm_in_drought": null,
        "run_at": "2026-05-04T16:24:53.264824+00:00"
      }
    },
    {
      "type": "Feature",
      "geometry": null,
      "properties": {
        "article_id": "https://www.texastribune.org/2026/03/10/texas-governor-greg-abbott-corpus-christi-water-crisis/",
        "title": "Corpus Christi\u2019s water issues spur threat of state takeover",
        "snippet": "",
        "url": "https://www.texastribune.org/2026/03/10/texas-governor-greg-abbott-corpus-christi-water-crisis/",
        "source": "The Texas Tribune",
        "published_at": "03/10/2026, 07:00 AM, +0000 UTC",
        "wire": "drought",
        "fetched_at": "2026-05-04T16:21:04.221632+00:00",
        "mention_text": null,
        "osm_display": null,
        "osm_type": null,
        "geocoded": false,
        "event_type": "drought_event",
        "usdm_dm_category": null,
        "usdm_dm_label": null,
        "usdm_in_drought": null,
        "run_at": "2026-05-04T16:24:53.264824+00:00"
      }
    },
    {
      "type": "Feature",
      "geometry": null,
      "properties": {
        "article_id": "https://www.texastribune.org/2026/03/20/texas-corpus-christi-water-shortage-oil-gas-refineries/",
        "title": "Corpus Christi refineries seek new water sources amid crisis",
        "snippet": "",
        "url": "https://www.texastribune.org/2026/03/20/texas-corpus-christi-water-shortage-oil-gas-refineries/",
        "source": "The Texas Tribune",
        "published_at": "03/20/2026, 07:00 AM, +0000 UTC",
        "wire": "drought",
        "fetched_at": "2026-05-04T16:21:04.221632+00:00",
        "mention_text": null,
        "osm_display": null,
        "osm_type": null,
        "geocoded": false,
        "event_type": "drought_event",
        "usdm_dm_category": null,
        "usdm_dm_label": null,
        "usdm_in_drought": null,
        "run_at": "2026-05-04T16:24:53.264824+00:00"
      }
    },
    {
      "type": "Feature",
      "geometry": null,
      "properties": {
        "article_id": "https://opvp.navajo-nsn.gov/navajo-nation-declares-drought-emergency-as-the-water-crisis-intensifies/",
        "title": "Navajo Nation Declares Drought Emergency as the Water Crisis Intensifies",
        "snippet": "",
        "url": "https://opvp.navajo-nsn.gov/navajo-nation-declares-drought-emergency-as-the-water-crisis-intensifies/",
        "source": "Navajo Nation Office of the President (.gov)",
        "published_at": "06/06/2025, 07:00 AM, +0000 UTC",
        "wire": "drought",
        "fetched_at": "2026-05-04T16:21:04.221632+00:00",
        "mention_text": null,
        "osm_display": null,
        "osm_type": null,
        "geocoded": false,
        "event_type": "drought_declaration",
        "usdm_dm_category": null,
        "usdm_dm_label": null,
        "usdm_in_drought": null,
        "run_at": "2026-05-04T16:24:53.264824+00:00"
      }
    },
    {
      "type": "Feature",
      "geometry": null,
      "properties": {
        "article_id": "https://www.outsideonline.com/outdoor-adventure/environment/big-bend-national-park-closed-water-shortage/",
        "title": "A Water Crisis Is Unfolding Inside One of America's Largest National Parks",
        "snippet": "",
        "url": "https://www.outsideonline.com/outdoor-adventure/environment/big-bend-national-park-closed-water-shortage/",
        "source": "Outside Magazine",
        "published_at": "02/03/2026, 08:00 AM, +0000 UTC",
        "wire": "drought",
        "fetched_at": "2026-05-04T16:21:04.221632+00:00",
        "mention_text": null,
        "osm_display": null,
        "osm_type": null,
        "geocoded": false,
        "event_type": "drought_event",
        "usdm_dm_category": null,
        "usdm_dm_label": null,
        "usdm_in_drought": null,
        "run_at": "2026-05-04T16:24:53.264824+00:00"
      }
    },
    {
      "type": "Feature",
      "geometry": null,
      "properties": {
        "article_id": "https://www.drought.gov/news/case-study-early-drought-declaration-gave-washington-communities-opportunity-prepare-2024-07",
        "title": "Case Study: An Early Drought Declaration Gave Washington Communities Opportunity To Prepare",
        "snippet": "",
        "url": "https://www.drought.gov/news/case-study-early-drought-declaration-gave-washington-communities-opportunity-prepare-2024-07",
        "source": "Drought.gov",
        "published_at": "07/09/2024, 07:00 AM, +0000 UTC",
        "wire": "drought",
        "fetched_at": "2026-05-04T16:21:04.221632+00:00",
        "mention_text": null,
        "osm_display": null,
        "osm_type": null,
        "geocoded": false,
        "event_type": "drought_declaration",
        "usdm_dm_category": null,
        "usdm_dm_label": null,
        "usdm_in_drought": null,
        "run_at": "2026-05-04T16:24:53.264824+00:00"
      }
    },
    {
      "type": "Feature",
      "geometry": null,
      "properties": {
        "article_id": "https://www.8newsnow.com/news/local-news/water-shortage-stays-at-tier-1-for-nevada-arizona-california-as-lake-mead-projections-released/",
        "title": "Water shortage stays at Tier 1 for Nevada, Arizona, California as Lake Mead projections released",
        "snippet": "",
        "url": "https://www.8newsnow.com/news/local-news/water-shortage-stays-at-tier-1-for-nevada-arizona-california-as-lake-mead-projections-released/",
        "source": "KLAS 8 News Now",
        "published_at": "08/15/2025, 07:00 AM, +0000 UTC",
        "wire": "drought",
        "fetched_at": "2026-05-04T16:21:04.221632+00:00",
        "mention_text": null,
        "osm_display": null,
        "osm_type": null,
        "geocoded": false,
        "event_type": "water_shortage",
        "usdm_dm_category": null,
        "usdm_dm_label": null,
        "usdm_in_drought": null,
        "run_at": "2026-05-04T16:24:53.264824+00:00"
      }
    },
    {
      "type": "Feature",
      "geometry": null,
      "properties": {
        "article_id": "https://ecology.wa.gov/about-us/who-we-are/news/2024/april-16-drought-declaration",
        "title": "Statewide drought declared due to low snowpack and dry forecast",
        "snippet": "",
        "url": "https://ecology.wa.gov/about-us/who-we-are/news/2024/april-16-drought-declaration",
        "source": "Department of Ecology - State of Washington (.gov)",
        "published_at": "04/16/2024, 07:00 AM, +0000 UTC",
        "wire": "drought",
        "fetched_at": "2026-05-04T16:21:04.221632+00:00",
        "mention_text": null,
        "osm_display": null,
        "osm_type": null,
        "geocoded": false,
        "event_type": "drought_event",
        "usdm_dm_category": null,
        "usdm_dm_label": null,
        "usdm_in_drought": null,
        "run_at": "2026-05-04T16:24:53.264824+00:00"
      }
    },
    {
      "type": "Feature",
      "geometry": null,
      "properties": {
        "article_id": "https://ecology.wa.gov/about-us/who-we-are/news/2025/april-8-drought",
        "title": "Drought declared for Yakima region for third year in a row",
        "snippet": "",
        "url": "https://ecology.wa.gov/about-us/who-we-are/news/2025/april-8-drought",
        "source": "Department of Ecology - State of Washington (.gov)",
        "published_at": "04/08/2025, 07:00 AM, +0000 UTC",
        "wire": "drought",
        "fetched_at": "2026-05-04T16:21:04.221632+00:00",
        "mention_text": null,
        "osm_display": null,
        "osm_type": null,
        "geocoded": false,
        "event_type": "drought_event",
        "usdm_dm_category": null,
        "usdm_dm_label": null,
        "usdm_in_drought": null,
        "run_at": "2026-05-04T16:24:53.264824+00:00"
      }
    },
    {
      "type": "Feature",
      "geometry": null,
      "properties": {
        "article_id": "https://ecology.wa.gov/about-us/who-we-are/news/2023/july-24-ecology-declares-drought-emergency-in-12-counties",
        "title": "July 24 Ecology declares drought emergency in 12 counties",
        "snippet": "",
        "url": "https://ecology.wa.gov/about-us/who-we-are/news/2023/july-24-ecology-declares-drought-emergency-in-12-counties",
        "source": "Department of Ecology - State of Washington (.gov)",
        "published_at": "07/24/2023, 07:00 AM, +0000 UTC",
        "wire": "drought",
        "fetched_at": "2026-05-04T16:21:04.221632+00:00",
        "mention_text": null,
        "osm_display": null,
        "osm_type": null,
        "geocoded": false,
        "event_type": "drought_declaration",
        "usdm_dm_category": null,
        "usdm_dm_label": null,
        "usdm_in_drought": null,
        "run_at": "2026-05-04T16:24:53.264824+00:00"
      }
    },
    {
      "type": "Feature",
      "geometry": null,
      "properties": {
        "article_id": "https://www.drought.gov/drought-status-updates/drought-status-update-pacific-northwest-2024-07-25",
        "title": "Drought Status Update for the Pacific Northwest | July 25, 2024",
        "snippet": "",
        "url": "https://www.drought.gov/drought-status-updates/drought-status-update-pacific-northwest-2024-07-25",
        "source": "Drought.gov",
        "published_at": "07/25/2024, 07:00 AM, +0000 UTC",
        "wire": "drought",
        "fetched_at": "2026-05-04T16:21:04.221632+00:00",
        "mention_text": null,
        "osm_display": null,
        "osm_type": null,
        "geocoded": false,
        "event_type": "drought_event",
        "usdm_dm_category": null,
        "usdm_dm_label": null,
        "usdm_in_drought": null,
        "run_at": "2026-05-04T16:24:53.264824+00:00"
      }
    },
    {
      "type": "Feature",
      "geometry": null,
      "properties": {
        "article_id": "https://www.gov.ca.gov/2021/10/19/governor-newsom-expands-drought-emergency-statewide-urges-californians-to-redouble-water-conservation-efforts/",
        "title": "Governor Newsom Expands Drought Emergency Statewide, Urges Californians to Redouble Water Conservation Efforts",
        "snippet": "",
        "url": "https://www.gov.ca.gov/2021/10/19/governor-newsom-expands-drought-emergency-statewide-urges-californians-to-redouble-water-conservation-efforts/",
        "source": "California State Portal | CA.gov",
        "published_at": "10/19/2021, 07:00 AM, +0000 UTC",
        "wire": "drought",
        "fetched_at": "2026-05-04T16:21:04.221632+00:00",
        "mention_text": null,
        "osm_display": null,
        "osm_type": null,
        "geocoded": false,
        "event_type": "drought_declaration",
        "usdm_dm_category": null,
        "usdm_dm_label": null,
        "usdm_in_drought": null,
        "run_at": "2026-05-04T16:24:53.264824+00:00"
      }
    },
    {
      "type": "Feature",
      "geometry": null,
      "properties": {
        "article_id": "https://doh.wa.gov/community-and-environment/drinking-water/drinking-water-emergencies/drought",
        "title": "Drought 2026",
        "snippet": "",
        "url": "https://doh.wa.gov/community-and-environment/drinking-water/drinking-water-emergencies/drought",
        "source": "Washington State Department of Health (.gov)",
        "published_at": "02/17/2022, 10:21 AM, +0000 UTC",
        "wire": "drought",
        "fetched_at": "2026-05-04T16:21:04.221632+00:00",
        "mention_text": null,
        "osm_display": null,
        "osm_type": null,
        "geocoded": false,
        "event_type": "drought_event",
        "usdm_dm_category": null,
        "usdm_dm_label": null,
        "usdm_in_drought": null,
        "run_at": "2026-05-04T16:24:53.264824+00:00"
      }
    },
    {
      "type": "Feature",
      "geometry": null,
      "properties": {
        "article_id": "https://ecology.wa.gov/blog/february-2024/washington-s-july-drought-declaration-still-in-effect",
        "title": "July drought declaration still in effect",
        "snippet": "",
        "url": "https://ecology.wa.gov/blog/february-2024/washington-s-july-drought-declaration-still-in-effect",
        "source": "Department of Ecology - State of Washington (.gov)",
        "published_at": "02/01/2024, 08:00 AM, +0000 UTC",
        "wire": "drought",
        "fetched_at": "2026-05-04T16:21:04.221632+00:00",
        "mention_text": null,
        "osm_display": null,
        "osm_type": null,
        "geocoded": false,
        "event_type": "drought_declaration",
        "usdm_dm_category": null,
        "usdm_dm_label": null,
        "usdm_in_drought": null,
        "run_at": "2026-05-04T16:24:53.264824+00:00"
      }
    },
    {
      "type": "Feature",
      "geometry": null,
      "properties": {
        "article_id": "https://www.ncei.noaa.gov/news/us-drought-monitor-update-july-20-2021",
        "title": "U.S. Drought Monitor Update for July 20, 2021",
        "snippet": "",
        "url": "https://www.ncei.noaa.gov/news/us-drought-monitor-update-july-20-2021",
        "source": "NOAA National Centers for Environmental Information (NCEI) (.gov)",
        "published_at": "07/20/2021, 07:00 AM, +0000 UTC",
        "wire": "drought",
        "fetched_at": "2026-05-04T16:21:04.221632+00:00",
        "mention_text": null,
        "osm_display": null,
        "osm_type": null,
        "geocoded": false,
        "event_type": "drought_event",
        "usdm_dm_category": null,
        "usdm_dm_label": null,
        "usdm_in_drought": null,
        "run_at": "2026-05-04T16:24:53.264824+00:00"
      }
    },
    {
      "type": "Feature",
      "geometry": null,
      "properties": {
        "article_id": "https://ecology.wa.gov/about-us/who-we-are/news/2021/2021-drought-declaration",
        "title": "Ecology declares drought emergency",
        "snippet": "",
        "url": "https://ecology.wa.gov/about-us/who-we-are/news/2021/2021-drought-declaration",
        "source": "Department of Ecology - State of Washington (.gov)",
        "published_at": "07/14/2021, 07:00 AM, +0000 UTC",
        "wire": "drought",
        "fetched_at": "2026-05-04T16:21:04.221632+00:00",
        "mention_text": null,
        "osm_display": null,
        "osm_type": null,
        "geocoded": false,
        "event_type": "drought_declaration",
        "usdm_dm_category": null,
        "usdm_dm_label": null,
        "usdm_in_drought": null,
        "run_at": "2026-05-04T16:24:53.264824+00:00"
      }
    },
    {
      "type": "Feature",
      "geometry": null,
      "properties": {
        "article_id": "https://www.ncei.noaa.gov/news/us-drought-monitor-update-march-22-2022",
        "title": "U.S. Drought Monitor Update for March 22, 2022",
        "snippet": "",
        "url": "https://www.ncei.noaa.gov/news/us-drought-monitor-update-march-22-2022",
        "source": "NOAA National Centers for Environmental Information (NCEI) (.gov)",
        "published_at": "03/22/2022, 07:00 AM, +0000 UTC",
        "wire": "drought",
        "fetched_at": "2026-05-04T16:21:04.221632+00:00",
        "mention_text": null,
        "osm_display": null,
        "osm_type": null,
        "geocoded": false,
        "event_type": "drought_event",
        "usdm_dm_category": null,
        "usdm_dm_label": null,
        "usdm_in_drought": null,
        "run_at": "2026-05-04T16:24:53.264824+00:00"
      }
    },
    {
      "type": "Feature",
      "geometry": null,
      "properties": {
        "article_id": "https://kingcounty.gov/en/dept/executive-services/health-safety/safety-injury-prevention/emergency-preparedness/drought",
        "title": "Drought emergency preparedness",
        "snippet": "",
        "url": "https://kingcounty.gov/en/dept/executive-services/health-safety/safety-injury-prevention/emergency-preparedness/drought",
        "source": "King County (.gov)",
        "published_at": "03/01/2024, 12:57 AM, +0000 UTC",
        "wire": "drought",
        "fetched_at": "2026-05-04T16:21:04.221632+00:00",
        "mention_text": null,
        "osm_display": null,
        "osm_type": null,
        "geocoded": false,
        "event_type": "drought_declaration",
        "usdm_dm_category": null,
        "usdm_dm_label": null,
        "usdm_in_drought": null,
        "run_at": "2026-05-04T16:24:53.264824+00:00"
      }
    },
    {
      "type": "Feature",
      "geometry": null,
      "properties": {
        "article_id": "https://storymaps.arcgis.com/stories/7db7e0f78c9243b2902c221b023333cb",
        "title": "New Mexico: Water Shortage-Sharing Agreements",
        "snippet": "",
        "url": "https://storymaps.arcgis.com/stories/7db7e0f78c9243b2902c221b023333cb",
        "source": "ArcGIS StoryMaps",
        "published_at": "06/24/2025, 09:33 AM, +0000 UTC",
        "wire": "drought",
        "fetched_at": "2026-05-04T16:21:04.221632+00:00",
        "mention_text": null,
        "osm_display": null,
        "osm_type": null,
        "geocoded": false,
        "event_type": "water_shortage",
        "usdm_dm_category": null,
        "usdm_dm_label": null,
        "usdm_in_drought": null,
        "run_at": "2026-05-04T16:24:53.264824+00:00"
      }
    },
    {
      "type": "Feature",
      "geometry": null,
      "properties": {
        "article_id": "https://www.ncei.noaa.gov/news/us-drought-weekly-report-october-29-2024",
        "title": "U.S. Drought: Weekly Report for October 29, 2024",
        "snippet": "",
        "url": "https://www.ncei.noaa.gov/news/us-drought-weekly-report-october-29-2024",
        "source": "NOAA National Centers for Environmental Information (NCEI) (.gov)",
        "published_at": "10/29/2024, 07:00 AM, +0000 UTC",
        "wire": "drought",
        "fetched_at": "2026-05-04T16:21:04.221632+00:00",
        "mention_text": null,
        "osm_display": null,
        "osm_type": null,
        "geocoded": false,
        "event_type": "drought_event",
        "usdm_dm_category": null,
        "usdm_dm_label": null,
        "usdm_in_drought": null,
        "run_at": "2026-05-04T16:24:53.264824+00:00"
      }
    },
    {
      "type": "Feature",
      "geometry": null,
      "properties": {
        "article_id": "https://www.drought.gov/news/how-drought-prone-your-state-look-top-states-and-counties-drought-over-last-two-decades",
        "title": "How Drought Prone Is Your State? A Look at the Top States and Counties in Drought Over the Last Two Decades",
        "snippet": "",
        "url": "https://www.drought.gov/news/how-drought-prone-your-state-look-top-states-and-counties-drought-over-last-two-decades",
        "source": "Drought.gov",
        "published_at": "08/09/2019, 07:00 AM, +0000 UTC",
        "wire": "drought",
        "fetched_at": "2026-05-04T16:21:04.221632+00:00",
        "mention_text": null,
        "osm_display": null,
        "osm_type": null,
        "geocoded": false,
        "event_type": "drought_event",
        "usdm_dm_category": null,
        "usdm_dm_label": null,
        "usdm_in_drought": null,
        "run_at": "2026-05-04T16:24:53.264824+00:00"
      }
    },
    {
      "type": "Feature",
      "geometry": null,
      "properties": {
        "article_id": "https://www.ncei.noaa.gov/news/us-drought-monitor-update-april-12-2022",
        "title": "U.S. Drought Monitor Update for April 12, 2022",
        "snippet": "",
        "url": "https://www.ncei.noaa.gov/news/us-drought-monitor-update-april-12-2022",
        "source": "NOAA National Centers for Environmental Information (NCEI) (.gov)",
        "published_at": "04/12/2022, 07:00 AM, +0000 UTC",
        "wire": "drought",
        "fetched_at": "2026-05-04T16:21:04.221632+00:00",
        "mention_text": null,
        "osm_display": null,
        "osm_type": null,
        "geocoded": false,
        "event_type": "drought_event",
        "usdm_dm_category": null,
        "usdm_dm_label": null,
        "usdm_in_drought": null,
        "run_at": "2026-05-04T16:24:53.264824+00:00"
      }
    },
    {
      "type": "Feature",
      "geometry": null,
      "properties": {
        "article_id": "https://www.ncei.noaa.gov/news/us-drought-monitor-update-august-31-2021",
        "title": "U.S. Drought Monitor Update for August 31, 2021",
        "snippet": "",
        "url": "https://www.ncei.noaa.gov/news/us-drought-monitor-update-august-31-2021",
        "source": "NOAA National Centers for Environmental Information (NCEI) (.gov)",
        "published_at": "08/31/2021, 07:00 AM, +0000 UTC",
        "wire": "drought",
        "fetched_at": "2026-05-04T16:21:04.221632+00:00",
        "mention_text": null,
        "osm_display": null,
        "osm_type": null,
        "geocoded": false,
        "event_type": "drought_event",
        "usdm_dm_category": null,
        "usdm_dm_label": null,
        "usdm_in_drought": null,
        "run_at": "2026-05-04T16:24:53.264824+00:00"
      }
    },
    {
      "type": "Feature",
      "geometry": null,
      "properties": {
        "article_id": "https://www.ncei.noaa.gov/news/us-drought-monitor-update-june-15-2021",
        "title": "U.S. Drought Monitor Update for June 15, 2021",
        "snippet": "",
        "url": "https://www.ncei.noaa.gov/news/us-drought-monitor-update-june-15-2021",
        "source": "NOAA National Centers for Environmental Information (NCEI) (.gov)",
        "published_at": "06/15/2021, 07:00 AM, +0000 UTC",
        "wire": "drought",
        "fetched_at": "2026-05-04T16:21:04.221632+00:00",
        "mention_text": null,
        "osm_display": null,
        "osm_type": null,
        "geocoded": false,
        "event_type": "drought_event",
        "usdm_dm_category": null,
        "usdm_dm_label": null,
        "usdm_in_drought": null,
        "run_at": "2026-05-04T16:24:53.264824+00:00"
      }
    },
    {
      "type": "Feature",
      "geometry": null,
      "properties": {
        "article_id": "https://www.ncei.noaa.gov/news/us-drought-monitor-update-july-6-2021",
        "title": "U.S. Drought Monitor Update for July 6, 2021",
        "snippet": "",
        "url": "https://www.ncei.noaa.gov/news/us-drought-monitor-update-july-6-2021",
        "source": "NOAA National Centers for Environmental Information (NCEI) (.gov)",
        "published_at": "07/06/2021, 07:00 AM, +0000 UTC",
        "wire": "drought",
        "fetched_at": "2026-05-04T16:21:04.221632+00:00",
        "mention_text": null,
        "osm_display": null,
        "osm_type": null,
        "geocoded": false,
        "event_type": "drought_event",
        "usdm_dm_category": null,
        "usdm_dm_label": null,
        "usdm_in_drought": null,
        "run_at": "2026-05-04T16:24:53.264824+00:00"
      }
    },
    {
      "type": "Feature",
      "geometry": null,
      "properties": {
        "article_id": "https://washingtonstatestandard.com/briefs/state-declares-drought-emergency-in-12-counties/",
        "title": "Washington declares drought emergency in 12 counties",
        "snippet": "",
        "url": "https://washingtonstatestandard.com/briefs/state-declares-drought-emergency-in-12-counties/",
        "source": "Washington State Standard",
        "published_at": "07/24/2023, 07:00 AM, +0000 UTC",
        "wire": "drought",
        "fetched_at": "2026-05-04T16:21:04.221632+00:00",
        "mention_text": null,
        "osm_display": null,
        "osm_type": null,
        "geocoded": false,
        "event_type": "drought_declaration",
        "usdm_dm_category": null,
        "usdm_dm_label": null,
        "usdm_in_drought": null,
        "run_at": "2026-05-04T16:24:53.264824+00:00"
      }
    },
    {
      "type": "Feature",
      "geometry": null,
      "properties": {
        "article_id": "https://www.ncei.noaa.gov/news/us-drought-monitor-update-april-6-2021",
        "title": "U.S. Drought Monitor Update for April 6, 2021",
        "snippet": "",
        "url": "https://www.ncei.noaa.gov/news/us-drought-monitor-update-april-6-2021",
        "source": "NOAA National Centers for Environmental Information (NCEI) (.gov)",
        "published_at": "04/06/2021, 07:00 AM, +0000 UTC",
        "wire": "drought",
        "fetched_at": "2026-05-04T16:21:04.221632+00:00",
        "mention_text": null,
        "osm_display": null,
        "osm_type": null,
        "geocoded": false,
        "event_type": "drought_event",
        "usdm_dm_category": null,
        "usdm_dm_label": null,
        "usdm_in_drought": null,
        "run_at": "2026-05-04T16:24:53.264824+00:00"
      }
    },
    {
      "type": "Feature",
      "geometry": null,
      "properties": {
        "article_id": "https://www.reuters.com/world/us/us-declares-first-ever-shortage-western-reservoir-triggering-water-cuts-2021-08-16/",
        "title": "U.S. declares first Western reservoir water shortage, triggering cuts",
        "snippet": "",
        "url": "https://www.reuters.com/world/us/us-declares-first-ever-shortage-western-reservoir-triggering-water-cuts-2021-08-16/",
        "source": "Reuters",
        "published_at": "08/17/2021, 07:00 AM, +0000 UTC",
        "wire": "drought",
        "fetched_at": "2026-05-04T16:21:04.221632+00:00",
        "mention_text": null,
        "osm_display": null,
        "osm_type": null,
        "geocoded": false,
        "event_type": "water_shortage",
        "usdm_dm_category": null,
        "usdm_dm_label": null,
        "usdm_in_drought": null,
        "run_at": "2026-05-04T16:24:53.264824+00:00"
      }
    },
    {
      "type": "Feature",
      "geometry": null,
      "properties": {
        "article_id": "https://bakersfieldnow.com/news/local/kern-county-moves-back-into-exceptional-drought-category",
        "title": "Kern County moves back into exceptional drought category",
        "snippet": "",
        "url": "https://bakersfieldnow.com/news/local/kern-county-moves-back-into-exceptional-drought-category",
        "source": "KBAK",
        "published_at": "05/26/2022, 07:00 AM, +0000 UTC",
        "wire": "drought",
        "fetched_at": "2026-05-04T16:21:04.221632+00:00",
        "mention_text": null,
        "osm_display": null,
        "osm_type": null,
        "geocoded": false,
        "event_type": "exceptional_drought",
        "usdm_dm_category": null,
        "usdm_dm_label": null,
        "usdm_in_drought": null,
        "run_at": "2026-05-04T16:24:53.264824+00:00"
      }
    },
    {
      "type": "Feature",
      "geometry": null,
      "properties": {
        "article_id": "https://www.climate.gov/news-features/featured-images/exceptional-drought-parts-seven-states-us-southwest",
        "title": "Exceptional drought in parts of seven states in U.S. Southwest",
        "snippet": "",
        "url": "https://www.climate.gov/news-features/featured-images/exceptional-drought-parts-seven-states-us-southwest",
        "source": "National Oceanic and Atmospheric Administration (.gov)",
        "published_at": "04/20/2018, 07:00 AM, +0000 UTC",
        "wire": "drought",
        "fetched_at": "2026-05-04T16:21:04.221632+00:00",
        "mention_text": null,
        "osm_display": null,
        "osm_type": null,
        "geocoded": false,
        "event_type": "exceptional_drought",
        "usdm_dm_category": null,
        "usdm_dm_label": null,
        "usdm_in_drought": null,
        "run_at": "2026-05-04T16:24:53.264824+00:00"
      }
    },
    {
      "type": "Feature",
      "geometry": null,
      "properties": {
        "article_id": "https://www.opb.org/article/2023/01/14/central-oregon-crook-county-extreme-drought-emergency/",
        "title": "As a Central Oregon county struggles with extreme drought conditions, officials declare an emergency",
        "snippet": "",
        "url": "https://www.opb.org/article/2023/01/14/central-oregon-crook-county-extreme-drought-emergency/",
        "source": "Oregon Public Broadcasting - OPB",
        "published_at": "01/14/2023, 08:00 AM, +0000 UTC",
        "wire": "drought",
        "fetched_at": "2026-05-04T16:21:04.221632+00:00",
        "mention_text": null,
        "osm_display": null,
        "osm_type": null,
        "geocoded": false,
        "event_type": "exceptional_drought",
        "usdm_dm_category": null,
        "usdm_dm_label": null,
        "usdm_in_drought": null,
        "run_at": "2026-05-04T16:24:53.264824+00:00"
      }
    },
    {
      "type": "Feature",
      "geometry": null,
      "properties": {
        "article_id": "https://civileats.com/2021/05/17/as-the-west-faces-a-drought-emergency-some-ranchers-are-restoring-grasslands-to-build-water-reserves/",
        "title": "As the West Faces a Drought Emergency, Some Ranchers Are Restoring Grasslands to Build Water Reserves",
        "snippet": "",
        "url": "https://civileats.com/2021/05/17/as-the-west-faces-a-drought-emergency-some-ranchers-are-restoring-grasslands-to-build-water-reserves/",
        "source": "Civil Eats",
        "published_at": "05/17/2021, 07:00 AM, +0000 UTC",
        "wire": "drought",
        "fetched_at": "2026-05-04T16:21:04.221632+00:00",
        "mention_text": null,
        "osm_display": null,
        "osm_type": null,
        "geocoded": false,
        "event_type": "drought_declaration",
        "usdm_dm_category": null,
        "usdm_dm_label": null,
        "usdm_in_drought": null,
        "run_at": "2026-05-04T16:24:53.264824+00:00"
      }
    },
    {
      "type": "Feature",
      "geometry": null,
      "properties": {
        "article_id": "https://www.nytimes.com/2021/08/16/climate/colorado-river-water-cuts.html",
        "title": "In a First, U.S. Declares Shortage on Colorado River, Forcing Water Cuts (Published 2021)",
        "snippet": "",
        "url": "https://www.nytimes.com/2021/08/16/climate/colorado-river-water-cuts.html",
        "source": "The New York Times",
        "published_at": "08/17/2021, 07:00 AM, +0000 UTC",
        "wire": "drought",
        "fetched_at": "2026-05-04T16:21:04.221632+00:00",
        "mention_text": null,
        "osm_display": null,
        "osm_type": null,
        "geocoded": false,
        "event_type": "drought_event",
        "usdm_dm_category": null,
        "usdm_dm_label": null,
        "usdm_in_drought": null,
        "run_at": "2026-05-04T16:24:53.264824+00:00"
      }
    },
    {
      "type": "Feature",
      "geometry": null,
      "properties": {
        "article_id": "https://www.fox13seattle.com/news/drought-emergency-declared-in-all-of-washington-except-these-cities",
        "title": "Drought emergency declared in all of Washington state except these cities",
        "snippet": "",
        "url": "https://www.fox13seattle.com/news/drought-emergency-declared-in-all-of-washington-except-these-cities",
        "source": "FOX 13 Seattle",
        "published_at": "04/16/2024, 07:00 AM, +0000 UTC",
        "wire": "drought",
        "fetched_at": "2026-05-04T16:21:04.221632+00:00",
        "mention_text": null,
        "osm_display": null,
        "osm_type": null,
        "geocoded": false,
        "event_type": "drought_declaration",
        "usdm_dm_category": null,
        "usdm_dm_label": null,
        "usdm_in_drought": null,
        "run_at": "2026-05-04T16:24:53.264824+00:00"
      }
    },
    {
      "type": "Feature",
      "geometry": null,
      "properties": {
        "article_id": "https://www.climate.gov/news-features/event-tracker/exceptional-drought-northern-plains-july-2017",
        "title": "Exceptional drought in Northern Plains in July 2017",
        "snippet": "",
        "url": "https://www.climate.gov/news-features/event-tracker/exceptional-drought-northern-plains-july-2017",
        "source": "National Oceanic and Atmospheric Administration (.gov)",
        "published_at": "07/24/2017, 07:00 AM, +0000 UTC",
        "wire": "drought",
        "fetched_at": "2026-05-04T16:21:04.221632+00:00",
        "mention_text": null,
        "osm_display": null,
        "osm_type": null,
        "geocoded": false,
        "event_type": "exceptional_drought",
        "usdm_dm_category": null,
        "usdm_dm_label": null,
        "usdm_in_drought": null,
        "run_at": "2026-05-04T16:24:53.264824+00:00"
      }
    },
    {
      "type": "Feature",
      "geometry": null,
      "properties": {
        "article_id": "https://www.ohio.edu/news/2024/11/ohio-researchers-study-impact-exceptional-drought-southeast-ohio-ecosystems",
        "title": "OHIO researchers study impact of exceptional drought on Southeast Ohio ecosystems",
        "snippet": "",
        "url": "https://www.ohio.edu/news/2024/11/ohio-researchers-study-impact-exceptional-drought-southeast-ohio-ecosystems",
        "source": "Ohio University",
        "published_at": "11/12/2024, 08:00 AM, +0000 UTC",
        "wire": "drought",
        "fetched_at": "2026-05-04T16:21:04.221632+00:00",
        "mention_text": null,
        "osm_display": null,
        "osm_type": null,
        "geocoded": false,
        "event_type": "exceptional_drought",
        "usdm_dm_category": null,
        "usdm_dm_label": null,
        "usdm_in_drought": null,
        "run_at": "2026-05-04T16:24:53.264824+00:00"
      }
    },
    {
      "type": "Feature",
      "geometry": null,
      "properties": {
        "article_id": "https://psmag.com/news/drought-intensifies-the-navajo-nations-ongoing-water-shortage-in-photos/",
        "title": "Drought Intensifies the Navajo Nation\u2019s Ongoing Water Shortage (in Photos)",
        "snippet": "",
        "url": "https://psmag.com/news/drought-intensifies-the-navajo-nations-ongoing-water-shortage-in-photos/",
        "source": "psmag.com",
        "published_at": "06/08/2019, 07:00 AM, +0000 UTC",
        "wire": "drought",
        "fetched_at": "2026-05-04T16:21:04.221632+00:00",
        "mention_text": null,
        "osm_display": null,
        "osm_type": null,
        "geocoded": false,
        "event_type": "water_shortage",
        "usdm_dm_category": null,
        "usdm_dm_label": null,
        "usdm_in_drought": null,
        "run_at": "2026-05-04T16:24:53.264824+00:00"
      }
    },
    {
      "type": "Feature",
      "geometry": null,
      "properties": {
        "article_id": "https://www.governing.com/context/seven-states-in-jeopardy-as-prolonged-drought-threatens-power-generation",
        "title": "Seven States in Jeopardy as Prolonged Drought Threatens Power Generation",
        "snippet": "",
        "url": "https://www.governing.com/context/seven-states-in-jeopardy-as-prolonged-drought-threatens-power-generation",
        "source": "Governing",
        "published_at": "10/03/2021, 07:00 AM, +0000 UTC",
        "wire": "drought",
        "fetched_at": "2026-05-04T16:21:04.221632+00:00",
        "mention_text": null,
        "osm_display": null,
        "osm_type": null,
        "geocoded": false,
        "event_type": "drought_event",
        "usdm_dm_category": null,
        "usdm_dm_label": null,
        "usdm_in_drought": null,
        "run_at": "2026-05-04T16:24:53.264824+00:00"
      }
    },
    {
      "type": "Feature",
      "geometry": null,
      "properties": {
        "article_id": "https://www.cbs8.com/article/news/regional/scorched-earth/exceptional-drought-lake-powell-part-1/509-5e6180e0-b5fa-4bfb-83d1-8057820bec16",
        "title": "Exceptional Drought: Why the Western United States is rooting for Lake Powell",
        "snippet": "",
        "url": "https://www.cbs8.com/article/news/regional/scorched-earth/exceptional-drought-lake-powell-part-1/509-5e6180e0-b5fa-4bfb-83d1-8057820bec16",
        "source": "cbs8.com",
        "published_at": "08/16/2021, 07:00 AM, +0000 UTC",
        "wire": "drought",
        "fetched_at": "2026-05-04T16:21:04.221632+00:00",
        "mention_text": null,
        "osm_display": null,
        "osm_type": null,
        "geocoded": false,
        "event_type": "exceptional_drought",
        "usdm_dm_category": null,
        "usdm_dm_label": null,
        "usdm_in_drought": null,
        "run_at": "2026-05-04T16:24:53.264824+00:00"
      }
    },
    {
      "type": "Feature",
      "geometry": null,
      "properties": {
        "article_id": "https://www.propublica.org/article/colorado-river-water-shortage-jay-famiglietti",
        "title": "As Colorado River Dries, the U.S. Teeters on the Brink of Larger Water Crisis",
        "snippet": "",
        "url": "https://www.propublica.org/article/colorado-river-water-shortage-jay-famiglietti",
        "source": "ProPublica",
        "published_at": "08/25/2022, 07:00 AM, +0000 UTC",
        "wire": "drought",
        "fetched_at": "2026-05-04T16:21:04.221632+00:00",
        "mention_text": null,
        "osm_display": null,
        "osm_type": null,
        "geocoded": false,
        "event_type": "drought_event",
        "usdm_dm_category": null,
        "usdm_dm_label": null,
        "usdm_in_drought": null,
        "run_at": "2026-05-04T16:24:53.264824+00:00"
      }
    },
    {
      "type": "Feature",
      "geometry": null,
      "properties": {
        "article_id": "https://www.theguardian.com/us-news/2021/may/30/california-drought-water-shortage-photo-essay",
        "title": "California faces another drought as lake beds turn to dust \u2013 a photo essay",
        "snippet": "",
        "url": "https://www.theguardian.com/us-news/2021/may/30/california-drought-water-shortage-photo-essay",
        "source": "The Guardian",
        "published_at": "05/30/2021, 07:00 AM, +0000 UTC",
        "wire": "drought",
        "fetched_at": "2026-05-04T16:21:04.221632+00:00",
        "mention_text": null,
        "osm_display": null,
        "osm_type": null,
        "geocoded": false,
        "event_type": "drought_event",
        "usdm_dm_category": null,
        "usdm_dm_label": null,
        "usdm_in_drought": null,
        "run_at": "2026-05-04T16:24:53.264824+00:00"
      }
    },
    {
      "type": "Feature",
      "geometry": null,
      "properties": {
        "article_id": "https://earth.org/florida-water-shortage/",
        "title": "The Looming Water Shortage Crisis in Florida",
        "snippet": "",
        "url": "https://earth.org/florida-water-shortage/",
        "source": "Earth.Org",
        "published_at": "05/13/2022, 07:00 AM, +0000 UTC",
        "wire": "drought",
        "fetched_at": "2026-05-04T16:21:04.221632+00:00",
        "mention_text": null,
        "osm_display": null,
        "osm_type": null,
        "geocoded": false,
        "event_type": "water_shortage",
        "usdm_dm_category": null,
        "usdm_dm_label": null,
        "usdm_in_drought": null,
        "run_at": "2026-05-04T16:24:53.264824+00:00"
      }
    },
    {
      "type": "Feature",
      "geometry": null,
      "properties": {
        "article_id": "https://www.pbs.org/newshour/nation/california-expands-drought-emergency-to-large-swath-of-state",
        "title": "California expands drought emergency to large swath of state",
        "snippet": "",
        "url": "https://www.pbs.org/newshour/nation/california-expands-drought-emergency-to-large-swath-of-state",
        "source": "PBS",
        "published_at": "05/10/2021, 07:00 AM, +0000 UTC",
        "wire": "drought",
        "fetched_at": "2026-05-04T16:21:04.221632+00:00",
        "mention_text": null,
        "osm_display": null,
        "osm_type": null,
        "geocoded": false,
        "event_type": "drought_declaration",
        "usdm_dm_category": null,
        "usdm_dm_label": null,
        "usdm_in_drought": null,
        "run_at": "2026-05-04T16:24:53.264824+00:00"
      }
    },
    {
      "type": "Feature",
      "geometry": null,
      "properties": {
        "article_id": "https://earth.org/lake-mead-and-colorado-river-basin-water-shortage/",
        "title": "Causes And Effects of Lake Mead and Colorado River Basin Water Shortage",
        "snippet": "",
        "url": "https://earth.org/lake-mead-and-colorado-river-basin-water-shortage/",
        "source": "Earth.Org",
        "published_at": "09/25/2022, 07:00 AM, +0000 UTC",
        "wire": "drought",
        "fetched_at": "2026-05-04T16:21:04.221632+00:00",
        "mention_text": null,
        "osm_display": null,
        "osm_type": null,
        "geocoded": false,
        "event_type": "water_shortage",
        "usdm_dm_category": null,
        "usdm_dm_label": null,
        "usdm_in_drought": null,
        "run_at": "2026-05-04T16:24:53.264824+00:00"
      }
    },
    {
      "type": "Feature",
      "geometry": null,
      "properties": {
        "article_id": "https://www.ncei.noaa.gov/news/us-drought-monitor-update-july-18-2017",
        "title": "U.S. Drought Monitor Update for July 18, 2017",
        "snippet": "",
        "url": "https://www.ncei.noaa.gov/news/us-drought-monitor-update-july-18-2017",
        "source": "NOAA National Centers for Environmental Information (NCEI) (.gov)",
        "published_at": "07/20/2017, 07:00 AM, +0000 UTC",
        "wire": "drought",
        "fetched_at": "2026-05-04T16:21:04.221632+00:00",
        "mention_text": null,
        "osm_display": null,
        "osm_type": null,
        "geocoded": false,
        "event_type": "drought_event",
        "usdm_dm_category": null,
        "usdm_dm_label": null,
        "usdm_in_drought": null,
        "run_at": "2026-05-04T16:24:53.264824+00:00"
      }
    },
    {
      "type": "Feature",
      "geometry": null,
      "properties": {
        "article_id": "https://psmag.com/news/washington-state-faces-a-drought-emergency-while-much-of-the-us-is-having-a-wet-spring/",
        "title": "Washington State Faces a Drought Emergency While Much of the U.S. Is Having a Wet Spring. Is This Normal?",
        "snippet": "",
        "url": "https://psmag.com/news/washington-state-faces-a-drought-emergency-while-much-of-the-us-is-having-a-wet-spring/",
        "source": "psmag.com",
        "published_at": "05/22/2019, 07:00 AM, +0000 UTC",
        "wire": "drought",
        "fetched_at": "2026-05-04T16:21:04.221632+00:00",
        "mention_text": null,
        "osm_display": null,
        "osm_type": null,
        "geocoded": false,
        "event_type": "drought_declaration",
        "usdm_dm_category": null,
        "usdm_dm_label": null,
        "usdm_in_drought": null,
        "run_at": "2026-05-04T16:24:53.264824+00:00"
      }
    },
    {
      "type": "Feature",
      "geometry": null,
      "properties": {
        "article_id": "https://www.weathernationtv.com/news/exceptional-drought-worsens-across-the-west",
        "title": "Exceptional Drought Worsens Across The West",
        "snippet": "",
        "url": "https://www.weathernationtv.com/news/exceptional-drought-worsens-across-the-west",
        "source": "WeatherNation",
        "published_at": "06/17/2021, 07:00 AM, +0000 UTC",
        "wire": "drought",
        "fetched_at": "2026-05-04T16:21:04.221632+00:00",
        "mention_text": null,
        "osm_display": null,
        "osm_type": null,
        "geocoded": false,
        "event_type": "exceptional_drought",
        "usdm_dm_category": null,
        "usdm_dm_label": null,
        "usdm_in_drought": null,
        "run_at": "2026-05-04T16:24:53.264824+00:00"
      }
    },
    {
      "type": "Feature",
      "geometry": null,
      "properties": {
        "article_id": "https://earth.org/water-shortage-in-texas/",
        "title": "Water Shortage in Texas: Causes, Effects and Solutions",
        "snippet": "",
        "url": "https://earth.org/water-shortage-in-texas/",
        "source": "Earth.Org",
        "published_at": "04/19/2022, 07:00 AM, +0000 UTC",
        "wire": "drought",
        "fetched_at": "2026-05-04T16:21:04.221632+00:00",
        "mention_text": null,
        "osm_display": null,
        "osm_type": null,
        "geocoded": false,
        "event_type": "water_shortage",
        "usdm_dm_category": null,
        "usdm_dm_label": null,
        "usdm_in_drought": null,
        "run_at": "2026-05-04T16:24:53.264824+00:00"
      }
    },
    {
      "type": "Feature",
      "geometry": null,
      "properties": {
        "article_id": "https://blog.ucs.org/pablo-ortiz/can-the-us-survive-californias-drought/",
        "title": "Can the US Survive California\u2019s Drought?",
        "snippet": "",
        "url": "https://blog.ucs.org/pablo-ortiz/can-the-us-survive-californias-drought/",
        "source": "The Equation - Union of Concerned Scientists",
        "published_at": "06/14/2021, 07:00 AM, +0000 UTC",
        "wire": "drought",
        "fetched_at": "2026-05-04T16:21:04.221632+00:00",
        "mention_text": null,
        "osm_display": null,
        "osm_type": null,
        "geocoded": false,
        "event_type": "drought_event",
        "usdm_dm_category": null,
        "usdm_dm_label": null,
        "usdm_in_drought": null,
        "run_at": "2026-05-04T16:24:53.264824+00:00"
      }
    },
    {
      "type": "Feature",
      "geometry": null,
      "properties": {
        "article_id": "https://www.kuow.org/stories/drought-emergency-declared-over-nearly-half-of-washington",
        "title": "Drought emergency declared over nearly half of Washington",
        "snippet": "",
        "url": "https://www.kuow.org/stories/drought-emergency-declared-over-nearly-half-of-washington",
        "source": "KUOW",
        "published_at": "05/20/2019, 07:00 AM, +0000 UTC",
        "wire": "drought",
        "fetched_at": "2026-05-04T16:21:04.221632+00:00",
        "mention_text": null,
        "osm_display": null,
        "osm_type": null,
        "geocoded": false,
        "event_type": "drought_declaration",
        "usdm_dm_category": null,
        "usdm_dm_label": null,
        "usdm_in_drought": null,
        "run_at": "2026-05-04T16:24:53.264824+00:00"
      }
    },
    {
      "type": "Feature",
      "geometry": null,
      "properties": {
        "article_id": "https://www.nytimes.com/2021/10/20/us/california-drought-emergency-newsom.html",
        "title": "As Drought Conditions Worsen, California Expands State of Emergency (Published 2021)",
        "snippet": "",
        "url": "https://www.nytimes.com/2021/10/20/us/california-drought-emergency-newsom.html",
        "source": "The New York Times",
        "published_at": "11/09/2021, 08:00 AM, +0000 UTC",
        "wire": "drought",
        "fetched_at": "2026-05-04T16:21:04.221632+00:00",
        "mention_text": null,
        "osm_display": null,
        "osm_type": null,
        "geocoded": false,
        "event_type": "drought_event",
        "usdm_dm_category": null,
        "usdm_dm_label": null,
        "usdm_in_drought": null,
        "run_at": "2026-05-04T16:24:53.264824+00:00"
      }
    },
    {
      "type": "Feature",
      "geometry": null,
      "properties": {
        "article_id": "https://agupubs.onlinelibrary.wiley.com/doi/full/10.1029/2021EF002278",
        "title": "Vulnerability to Water Shortage Under Current and Future Water Supply-Demand Conditions Across U.S. River Basins",
        "snippet": "",
        "url": "https://agupubs.onlinelibrary.wiley.com/doi/full/10.1029/2021EF002278",
        "source": "AGU Publications",
        "published_at": "09/20/2021, 07:00 AM, +0000 UTC",
        "wire": "drought",
        "fetched_at": "2026-05-04T16:21:04.221632+00:00",
        "mention_text": null,
        "osm_display": null,
        "osm_type": null,
        "geocoded": false,
        "event_type": "water_shortage",
        "usdm_dm_category": null,
        "usdm_dm_label": null,
        "usdm_in_drought": null,
        "run_at": "2026-05-04T16:24:53.264824+00:00"
      }
    },
    {
      "type": "Feature",
      "geometry": null,
      "properties": {
        "article_id": "https://www.nytimes.com/2021/06/30/climate/nyt-climate-newsletter-california-drought.html",
        "title": "What a Water Shortage Is Doing to Some of America\u2019s Best Farmland (Published 2021)",
        "snippet": "",
        "url": "https://www.nytimes.com/2021/06/30/climate/nyt-climate-newsletter-california-drought.html",
        "source": "The New York Times",
        "published_at": "07/09/2021, 07:00 AM, +0000 UTC",
        "wire": "drought",
        "fetched_at": "2026-05-04T16:21:04.221632+00:00",
        "mention_text": null,
        "osm_display": null,
        "osm_type": null,
        "geocoded": false,
        "event_type": "water_shortage",
        "usdm_dm_category": null,
        "usdm_dm_label": null,
        "usdm_in_drought": null,
        "run_at": "2026-05-04T16:24:53.264824+00:00"
      }
    },
    {
      "type": "Feature",
      "geometry": null,
      "properties": {
        "article_id": "https://www.keranews.org/texas-news/2025-03-21/texas-farmers-struggle-us-denies-water-shortage-mexico-treaty-shortfalls",
        "title": "Texas farmers struggle as U.S. denies Mexico\u2019s water request over treaty shortfalls",
        "snippet": "",
        "url": "https://www.keranews.org/texas-news/2025-03-21/texas-farmers-struggle-us-denies-water-shortage-mexico-treaty-shortfalls",
        "source": "KERA News",
        "published_at": "03/21/2025, 07:00 AM, +0000 UTC",
        "wire": "drought",
        "fetched_at": "2026-05-04T16:21:04.221632+00:00",
        "mention_text": null,
        "osm_display": null,
        "osm_type": null,
        "geocoded": false,
        "event_type": "drought_event",
        "usdm_dm_category": null,
        "usdm_dm_label": null,
        "usdm_in_drought": null,
        "run_at": "2026-05-04T16:24:53.264824+00:00"
      }
    },
    {
      "type": "Feature",
      "geometry": null,
      "properties": {
        "article_id": "https://www.nature.org/en-us/newsroom/drought-water-shortage-colorado-river/",
        "title": "Tier 1 Shortage Declaration for the Colorado River",
        "snippet": "",
        "url": "https://www.nature.org/en-us/newsroom/drought-water-shortage-colorado-river/",
        "source": "The Nature Conservancy",
        "published_at": "08/14/2021, 07:00 AM, +0000 UTC",
        "wire": "drought",
        "fetched_at": "2026-05-04T16:21:04.221632+00:00",
        "mention_text": null,
        "osm_display": null,
        "osm_type": null,
        "geocoded": false,
        "event_type": "drought_event",
        "usdm_dm_category": null,
        "usdm_dm_label": null,
        "usdm_in_drought": null,
        "run_at": "2026-05-04T16:24:53.264824+00:00"
      }
    },
    {
      "type": "Feature",
      "geometry": null,
      "properties": {
        "article_id": "https://www.npr.org/2021/08/16/1028300110/colorado-river-shortage-western-states-first-federal-water-cuts",
        "title": "Western States Face Water Cuts As A Shortage In The Colorado River Is Declared",
        "snippet": "",
        "url": "https://www.npr.org/2021/08/16/1028300110/colorado-river-shortage-western-states-first-federal-water-cuts",
        "source": "NPR",
        "published_at": "08/16/2021, 07:00 AM, +0000 UTC",
        "wire": "drought",
        "fetched_at": "2026-05-04T16:21:04.221632+00:00",
        "mention_text": null,
        "osm_display": null,
        "osm_type": null,
        "geocoded": false,
        "event_type": "drought_event",
        "usdm_dm_category": null,
        "usdm_dm_label": null,
        "usdm_in_drought": null,
        "run_at": "2026-05-04T16:24:53.264824+00:00"
      }
    },
    {
      "type": "Feature",
      "geometry": null,
      "properties": {
        "article_id": "https://www.frontiersin.org/journals/water/articles/10.3389/frwa.2021.694817/full",
        "title": "Effects of Urban Development Patterns on Municipal Water Shortage",
        "snippet": "",
        "url": "https://www.frontiersin.org/journals/water/articles/10.3389/frwa.2021.694817/full",
        "source": "Frontiers",
        "published_at": "06/28/2023, 07:30 AM, +0000 UTC",
        "wire": "drought",
        "fetched_at": "2026-05-04T16:21:04.221632+00:00",
        "mention_text": null,
        "osm_display": null,
        "osm_type": null,
        "geocoded": false,
        "event_type": "water_shortage",
        "usdm_dm_category": null,
        "usdm_dm_label": null,
        "usdm_in_drought": null,
        "run_at": "2026-05-04T16:24:53.264824+00:00"
      }
    },
    {
      "type": "Feature",
      "geometry": null,
      "properties": {
        "article_id": "https://www.globalelr.com/2024/02/california-water-challenges-remain-despite-significant-precipitation-in-2023/",
        "title": "California Water Challenges Remain Despite Significant Precipitation in 2023",
        "snippet": "",
        "url": "https://www.globalelr.com/2024/02/california-water-challenges-remain-despite-significant-precipitation-in-2023/",
        "source": "globalelr.com",
        "published_at": "02/09/2024, 08:00 AM, +0000 UTC",
        "wire": "drought",
        "fetched_at": "2026-05-04T16:21:04.221632+00:00",
        "mention_text": null,
        "osm_display": null,
        "osm_type": null,
        "geocoded": false,
        "event_type": "drought_event",
        "usdm_dm_category": null,
        "usdm_dm_label": null,
        "usdm_in_drought": null,
        "run_at": "2026-05-04T16:24:53.264824+00:00"
      }
    },
    {
      "type": "Feature",
      "geometry": null,
      "properties": {
        "article_id": "https://www.sanluisobispo.com/news/local/environment/article252257788.html",
        "title": "SLO County is now in \u2018extreme\u2019 or \u2018exceptional\u2019 drought. What happens now?",
        "snippet": "",
        "url": "https://www.sanluisobispo.com/news/local/environment/article252257788.html",
        "source": "San Luis Obispo Tribune",
        "published_at": "06/21/2021, 07:00 AM, +0000 UTC",
        "wire": "drought",
        "fetched_at": "2026-05-04T16:21:04.221632+00:00",
        "mention_text": null,
        "osm_display": null,
        "osm_type": null,
        "geocoded": false,
        "event_type": "drought_event",
        "usdm_dm_category": null,
        "usdm_dm_label": null,
        "usdm_in_drought": null,
        "run_at": "2026-05-04T16:24:53.264824+00:00"
      }
    },
    {
      "type": "Feature",
      "geometry": null,
      "properties": {
        "article_id": "https://www.bbc.com/news/world-us-canada-58248634",
        "title": "Colorado River: First-ever shortage declared amid record US drought",
        "snippet": "",
        "url": "https://www.bbc.com/news/world-us-canada-58248634",
        "source": "BBC",
        "published_at": "08/17/2021, 07:00 AM, +0000 UTC",
        "wire": "drought",
        "fetched_at": "2026-05-04T16:21:04.221632+00:00",
        "mention_text": null,
        "osm_display": null,
        "osm_type": null,
        "geocoded": false,
        "event_type": "drought_event",
        "usdm_dm_category": null,
        "usdm_dm_label": null,
        "usdm_in_drought": null,
        "run_at": "2026-05-04T16:24:53.264824+00:00"
      }
    },
    {
      "type": "Feature",
      "geometry": null,
      "properties": {
        "article_id": "https://environmentamerica.org/articles/megadrought-intensifies-water-shortage-in-the-lake-mead-reservoir/",
        "title": "\u2018Megadrought\u2019 intensifies water shortage in the Lake Mead reservoir",
        "snippet": "",
        "url": "https://environmentamerica.org/articles/megadrought-intensifies-water-shortage-in-the-lake-mead-reservoir/",
        "source": "Environment America",
        "published_at": "08/30/2022, 07:00 AM, +0000 UTC",
        "wire": "drought",
        "fetched_at": "2026-05-04T16:21:04.221632+00:00",
        "mention_text": null,
        "osm_display": null,
        "osm_type": null,
        "geocoded": false,
        "event_type": "water_shortage",
        "usdm_dm_category": null,
        "usdm_dm_label": null,
        "usdm_in_drought": null,
        "run_at": "2026-05-04T16:24:53.264824+00:00"
      }
    },
    {
      "type": "Feature",
      "geometry": null,
      "properties": {
        "article_id": "https://www.timeforkids.com/g56/water-shortage/",
        "title": "Water Shortage",
        "snippet": "",
        "url": "https://www.timeforkids.com/g56/water-shortage/",
        "source": "TIME for Kids",
        "published_at": "08/27/2021, 07:00 AM, +0000 UTC",
        "wire": "drought",
        "fetched_at": "2026-05-04T16:21:04.221632+00:00",
        "mention_text": null,
        "osm_display": null,
        "osm_type": null,
        "geocoded": false,
        "event_type": "water_shortage",
        "usdm_dm_category": null,
        "usdm_dm_label": null,
        "usdm_in_drought": null,
        "run_at": "2026-05-04T16:24:53.264824+00:00"
      }
    },
    {
      "type": "Feature",
      "geometry": null,
      "properties": {
        "article_id": "https://www.npr.org/2021/07/13/1013446314/amid-a-mega-drought-a-water-shortage-will-be-declared-along-the-colorado-river",
        "title": "Amid A Megadrought, Federal Water Shortage Limits Loom For The Colorado River",
        "snippet": "",
        "url": "https://www.npr.org/2021/07/13/1013446314/amid-a-mega-drought-a-water-shortage-will-be-declared-along-the-colorado-river",
        "source": "NPR",
        "published_at": "07/13/2021, 07:00 AM, +0000 UTC",
        "wire": "drought",
        "fetched_at": "2026-05-04T16:21:04.221632+00:00",
        "mention_text": null,
        "osm_display": null,
        "osm_type": null,
        "geocoded": false,
        "event_type": "water_shortage",
        "usdm_dm_category": null,
        "usdm_dm_label": null,
        "usdm_in_drought": null,
        "run_at": "2026-05-04T16:24:53.264824+00:00"
      }
    },
    {
      "type": "Feature",
      "geometry": null,
      "properties": {
        "article_id": "https://storymaps.arcgis.com/stories/c2dc21666e4d4f38841547520b0037a4",
        "title": "Water Shortage in Arizona",
        "snippet": "",
        "url": "https://storymaps.arcgis.com/stories/c2dc21666e4d4f38841547520b0037a4",
        "source": "ArcGIS StoryMaps",
        "published_at": "02/12/2021, 08:00 AM, +0000 UTC",
        "wire": "drought",
        "fetched_at": "2026-05-04T16:21:04.221632+00:00",
        "mention_text": null,
        "osm_display": null,
        "osm_type": null,
        "geocoded": false,
        "event_type": "water_shortage",
        "usdm_dm_category": null,
        "usdm_dm_label": null,
        "usdm_in_drought": null,
        "run_at": "2026-05-04T16:24:53.264824+00:00"
      }
    }
  ],
  "metadata": {
    "wire": "drought",
    "last_updated": "2026-05-04T21:47:05.990885+00:00",
    "total_features": 94
  }
}