{
  "type": "FeatureCollection",
  "features": [
    {
      "type": "Feature",
      "geometry": null,
      "properties": {
        "article_id": "https://www.bbc.com/news/videos/cwy2pxkkkdjo",
        "title": "Wildfire tears through hundreds of acres in Arizona",
        "snippet": "",
        "url": "https://www.bbc.com/news/videos/cwy2pxkkkdjo",
        "source": "BBC",
        "published_at": "05/04/2026, 03:04 AM, +0000 UTC",
        "wire": "fire",
        "fetched_at": "2026-05-04T17:02:41.019788+00:00",
        "mention_text": null,
        "osm_display": null,
        "osm_type": null,
        "geocoded": false,
        "event_type": "wildfire_event",
        "firms_dist_km": null,
        "firms_frp_mw": null,
        "firms_brightness": null,
        "firms_acq_datetime": null,
        "firms_confidence": null,
        "firms_daynight": null,
        "firms_active_fire_nearby": null,
        "run_at": "2026-05-04T17:08:08.975202+00:00"
      }
    },
    {
      "type": "Feature",
      "geometry": null,
      "properties": {
        "article_id": "https://ktar.com/national-news/states-across-the-wildfire-prone-western-us-are-using-ai-for-early-detection-2/5857077/",
        "title": "States across the wildfire-prone Western US are using AI for early detection",
        "snippet": "",
        "url": "https://ktar.com/national-news/states-across-the-wildfire-prone-western-us-are-using-ai-for-early-detection-2/5857077/",
        "source": "KTAR News 92.3 FM",
        "published_at": "05/04/2026, 01:05 PM, +0000 UTC",
        "wire": "fire",
        "fetched_at": "2026-05-04T17:02:41.019788+00:00",
        "mention_text": null,
        "osm_display": null,
        "osm_type": null,
        "geocoded": false,
        "event_type": "wildfire_event",
        "firms_dist_km": null,
        "firms_frp_mw": null,
        "firms_brightness": null,
        "firms_acq_datetime": null,
        "firms_confidence": null,
        "firms_daynight": null,
        "firms_active_fire_nearby": null,
        "run_at": "2026-05-04T17:08:08.975202+00:00"
      }
    },
    {
      "type": "Feature",
      "geometry": null,
      "properties": {
        "article_id": "https://www.djournal.com/news/nation-world/states-across-the-wildfire-prone-western-us-are-using-ai-for-early-detection/article_1544bd45-7b89-5c25-bc84-5cc914d9b364.html",
        "title": "States across the wildfire-prone Western US are using AI for early detection",
        "snippet": "",
        "url": "https://www.djournal.com/news/nation-world/states-across-the-wildfire-prone-western-us-are-using-ai-for-early-detection/article_1544bd45-7b89-5c25-bc84-5cc914d9b364.html",
        "source": "Northeast Mississippi Daily Journal",
        "published_at": "05/04/2026, 04:37 PM, +0000 UTC",
        "wire": "fire",
        "fetched_at": "2026-05-04T17:02:41.019788+00:00",
        "mention_text": null,
        "osm_display": null,
        "osm_type": null,
        "geocoded": false,
        "event_type": "wildfire_event",
        "firms_dist_km": null,
        "firms_frp_mw": null,
        "firms_brightness": null,
        "firms_acq_datetime": null,
        "firms_confidence": null,
        "firms_daynight": null,
        "firms_active_fire_nearby": null,
        "run_at": "2026-05-04T17:08:08.975202+00:00"
      }
    },
    {
      "type": "Feature",
      "geometry": null,
      "properties": {
        "article_id": "https://www.axios.com/local/salt-lake-city/2026/05/04/utah-wildfire-season-drought",
        "title": "Utah braces for \"dangerous\" wildfire season",
        "snippet": "",
        "url": "https://www.axios.com/local/salt-lake-city/2026/05/04/utah-wildfire-season-drought",
        "source": "Axios",
        "published_at": "05/04/2026, 12:03 PM, +0000 UTC",
        "wire": "fire",
        "fetched_at": "2026-05-04T17:02:41.019788+00:00",
        "mention_text": null,
        "osm_display": null,
        "osm_type": null,
        "geocoded": false,
        "event_type": "wildfire_event",
        "firms_dist_km": null,
        "firms_frp_mw": null,
        "firms_brightness": null,
        "firms_acq_datetime": null,
        "firms_confidence": null,
        "firms_daynight": null,
        "firms_active_fire_nearby": null,
        "run_at": "2026-05-04T17:08:08.975202+00:00"
      }
    },
    {
      "type": "Feature",
      "geometry": null,
      "properties": {
        "article_id": "https://www.backpacker.com/news-and-events/news/wildfire-activity-is-already-spiking-heres-what-that-means-for-your-summer-hiking-plans/",
        "title": "Wildfires Are Already Spiking. Here\u2019s What That Means for Your Summer Hiking Plans.",
        "snippet": "",
        "url": "https://www.backpacker.com/news-and-events/news/wildfire-activity-is-already-spiking-heres-what-that-means-for-your-summer-hiking-plans/",
        "source": "Backpacker Magazine",
        "published_at": "05/02/2026, 02:15 PM, +0000 UTC",
        "wire": "fire",
        "fetched_at": "2026-05-04T17:02:41.019788+00:00",
        "mention_text": null,
        "osm_display": null,
        "osm_type": null,
        "geocoded": false,
        "event_type": "wildfire_event",
        "firms_dist_km": null,
        "firms_frp_mw": null,
        "firms_brightness": null,
        "firms_acq_datetime": null,
        "firms_confidence": null,
        "firms_daynight": null,
        "firms_active_fire_nearby": null,
        "run_at": "2026-05-04T17:08:08.975202+00:00"
      }
    },
    {
      "type": "Feature",
      "geometry": null,
      "properties": {
        "article_id": "https://wildfiretoday.com/southern-states-near-peak-fire-resource-allocations-as-wildfire-awareness-month-kicks-off/",
        "title": "Southern states near peak fire resource allocations as \u2018Wildfire Awareness Month\u2019 kicks off",
        "snippet": "",
        "url": "https://wildfiretoday.com/southern-states-near-peak-fire-resource-allocations-as-wildfire-awareness-month-kicks-off/",
        "source": "wildfiretoday.com",
        "published_at": "05/03/2026, 03:51 PM, +0000 UTC",
        "wire": "fire",
        "fetched_at": "2026-05-04T17:02:41.019788+00:00",
        "mention_text": null,
        "osm_display": null,
        "osm_type": null,
        "geocoded": false,
        "event_type": "wildfire_event",
        "firms_dist_km": null,
        "firms_frp_mw": null,
        "firms_brightness": null,
        "firms_acq_datetime": null,
        "firms_confidence": null,
        "firms_daynight": null,
        "firms_active_fire_nearby": null,
        "run_at": "2026-05-04T17:08:08.975202+00:00"
      }
    },
    {
      "type": "Feature",
      "geometry": null,
      "properties": {
        "article_id": "https://www.travelandtourworld.com/news/article/arizona-wildfire-disaster-us-state-struggles-to-contain-blaze-as-hundreds-of-acres-burn-and-evacuations-mount/",
        "title": "Arizona Wildfire Disaster: US State Struggles to Contain Blaze as Hundreds of Acres Burn and Evacuations Mount",
        "snippet": "",
        "url": "https://www.travelandtourworld.com/news/article/arizona-wildfire-disaster-us-state-struggles-to-contain-blaze-as-hundreds-of-acres-burn-and-evacuations-mount/",
        "source": "Travel And Tour World",
        "published_at": "05/04/2026, 11:37 AM, +0000 UTC",
        "wire": "fire",
        "fetched_at": "2026-05-04T17:02:41.019788+00:00",
        "mention_text": null,
        "osm_display": null,
        "osm_type": null,
        "geocoded": false,
        "event_type": "wildfire_event",
        "firms_dist_km": null,
        "firms_frp_mw": null,
        "firms_brightness": null,
        "firms_acq_datetime": null,
        "firms_confidence": null,
        "firms_daynight": null,
        "firms_active_fire_nearby": null,
        "run_at": "2026-05-04T17:08:08.975202+00:00"
      }
    },
    {
      "type": "Feature",
      "geometry": null,
      "properties": {
        "article_id": "https://www.pnas.org/doi/10.1073/pnas.2505886122",
        "title": "Rising rates of wildfire building destruction in the conterminous United States",
        "snippet": "",
        "url": "https://www.pnas.org/doi/10.1073/pnas.2505886122",
        "source": "PNAS",
        "published_at": "12/15/2025, 08:00 AM, +0000 UTC",
        "wire": "fire",
        "fetched_at": "2026-05-04T17:02:41.019788+00:00",
        "mention_text": null,
        "osm_display": null,
        "osm_type": null,
        "geocoded": false,
        "event_type": "wildfire_event",
        "firms_dist_km": null,
        "firms_frp_mw": null,
        "firms_brightness": null,
        "firms_acq_datetime": null,
        "firms_confidence": null,
        "firms_daynight": null,
        "firms_active_fire_nearby": null,
        "run_at": "2026-05-04T17:08:08.975202+00:00"
      }
    },
    {
      "type": "Feature",
      "geometry": null,
      "properties": {
        "article_id": "https://www.army.mil/article/292094/georgia_national_guard_engineers_support_wildfire_response",
        "title": "Georgia National Guard engineers support wildfire response",
        "snippet": "",
        "url": "https://www.army.mil/article/292094/georgia_national_guard_engineers_support_wildfire_response",
        "source": "army.mil",
        "published_at": "04/30/2026, 02:32 PM, +0000 UTC",
        "wire": "fire",
        "fetched_at": "2026-05-04T17:02:41.019788+00:00",
        "mention_text": null,
        "osm_display": null,
        "osm_type": null,
        "geocoded": false,
        "event_type": "wildfire_event",
        "firms_dist_km": null,
        "firms_frp_mw": null,
        "firms_brightness": null,
        "firms_acq_datetime": null,
        "firms_confidence": null,
        "firms_daynight": null,
        "firms_active_fire_nearby": null,
        "run_at": "2026-05-04T17:08:08.975202+00:00"
      }
    },
    {
      "type": "Feature",
      "geometry": null,
      "properties": {
        "article_id": "https://www.army.mil/article/292046/nebraska_guard_conducts_joint_wildfire_response",
        "title": "Nebraska Guard conducts joint wildfire response",
        "snippet": "",
        "url": "https://www.army.mil/article/292046/nebraska_guard_conducts_joint_wildfire_response",
        "source": "army.mil",
        "published_at": "04/29/2026, 01:21 PM, +0000 UTC",
        "wire": "fire",
        "fetched_at": "2026-05-04T17:02:41.019788+00:00",
        "mention_text": null,
        "osm_display": null,
        "osm_type": null,
        "geocoded": false,
        "event_type": "wildfire_event",
        "firms_dist_km": null,
        "firms_frp_mw": null,
        "firms_brightness": null,
        "firms_acq_datetime": null,
        "firms_confidence": null,
        "firms_daynight": null,
        "firms_active_fire_nearby": null,
        "run_at": "2026-05-04T17:08:08.975202+00:00"
      }
    },
    {
      "type": "Feature",
      "geometry": null,
      "properties": {
        "article_id": "https://www.science.org/doi/10.1126/sciadv.adw5890",
        "title": "Wildfire smoke PM2.5 and mortality rate in the contiguous United States: A causal modeling study",
        "snippet": "",
        "url": "https://www.science.org/doi/10.1126/sciadv.adw5890",
        "source": "Science | AAAS",
        "published_at": "02/04/2026, 08:00 AM, +0000 UTC",
        "wire": "fire",
        "fetched_at": "2026-05-04T17:02:41.019788+00:00",
        "mention_text": null,
        "osm_display": null,
        "osm_type": null,
        "geocoded": false,
        "event_type": "wildfire_event",
        "firms_dist_km": null,
        "firms_frp_mw": null,
        "firms_brightness": null,
        "firms_acq_datetime": null,
        "firms_confidence": null,
        "firms_daynight": null,
        "firms_active_fire_nearby": null,
        "run_at": "2026-05-04T17:08:08.975202+00:00"
      }
    },
    {
      "type": "Feature",
      "geometry": null,
      "properties": {
        "article_id": "https://www.army.mil/article/291988/georgia_national_guard_aids_wildfire_suppression_efforts",
        "title": "Georgia National Guard aids wildfire suppression efforts",
        "snippet": "",
        "url": "https://www.army.mil/article/291988/georgia_national_guard_aids_wildfire_suppression_efforts",
        "source": "army.mil",
        "published_at": "04/27/2026, 06:01 PM, +0000 UTC",
        "wire": "fire",
        "fetched_at": "2026-05-04T17:02:41.019788+00:00",
        "mention_text": null,
        "osm_display": null,
        "osm_type": null,
        "geocoded": false,
        "event_type": "wildfire_event",
        "firms_dist_km": null,
        "firms_frp_mw": null,
        "firms_brightness": null,
        "firms_acq_datetime": null,
        "firms_confidence": null,
        "firms_daynight": null,
        "firms_active_fire_nearby": null,
        "run_at": "2026-05-04T17:08:08.975202+00:00"
      }
    },
    {
      "type": "Feature",
      "geometry": null,
      "properties": {
        "article_id": "https://www.nature.com/articles/s43247-026-03336-y",
        "title": "Urban areas in the United States experience substantial wildfire impacts",
        "snippet": "",
        "url": "https://www.nature.com/articles/s43247-026-03336-y",
        "source": "Nature",
        "published_at": "03/02/2026, 08:00 AM, +0000 UTC",
        "wire": "fire",
        "fetched_at": "2026-05-04T17:02:41.019788+00:00",
        "mention_text": null,
        "osm_display": null,
        "osm_type": null,
        "geocoded": false,
        "event_type": "wildfire_event",
        "firms_dist_km": null,
        "firms_frp_mw": null,
        "firms_brightness": null,
        "firms_acq_datetime": null,
        "firms_confidence": null,
        "firms_daynight": null,
        "firms_active_fire_nearby": null,
        "run_at": "2026-05-04T17:08:08.975202+00:00"
      }
    },
    {
      "type": "Feature",
      "geometry": null,
      "properties": {
        "article_id": "https://www.nature.com/articles/s41597-025-06226-8",
        "title": "Two and a half decades of United States wildfire burn zone disaster data, 2000-2025 | Scientific Data",
        "snippet": "",
        "url": "https://www.nature.com/articles/s41597-025-06226-8",
        "source": "Nature",
        "published_at": "12/17/2025, 08:00 AM, +0000 UTC",
        "wire": "fire",
        "fetched_at": "2026-05-04T17:02:41.019788+00:00",
        "mention_text": null,
        "osm_display": null,
        "osm_type": null,
        "geocoded": false,
        "event_type": "wildfire_event",
        "firms_dist_km": null,
        "firms_frp_mw": null,
        "firms_brightness": null,
        "firms_acq_datetime": null,
        "firms_confidence": null,
        "firms_daynight": null,
        "firms_active_fire_nearby": null,
        "run_at": "2026-05-04T17:08:08.975202+00:00"
      }
    },
    {
      "type": "Feature",
      "geometry": null,
      "properties": {
        "article_id": "https://oehha.ca.gov/climate-change/epic-2022/impacts-human-health/wildfire-smoke",
        "title": "Wildfire Smoke",
        "snippet": "",
        "url": "https://oehha.ca.gov/climate-change/epic-2022/impacts-human-health/wildfire-smoke",
        "source": "Office of Environmental Health Hazard Assessment (.gov)",
        "published_at": "10/24/2025, 07:00 AM, +0000 UTC",
        "wire": "fire",
        "fetched_at": "2026-05-04T17:02:41.019788+00:00",
        "mention_text": null,
        "osm_display": null,
        "osm_type": null,
        "geocoded": false,
        "event_type": "wildfire_event",
        "firms_dist_km": null,
        "firms_frp_mw": null,
        "firms_brightness": null,
        "firms_acq_datetime": null,
        "firms_confidence": null,
        "firms_daynight": null,
        "firms_active_fire_nearby": null,
        "run_at": "2026-05-04T17:08:08.975202+00:00"
      }
    },
    {
      "type": "Feature",
      "geometry": null,
      "properties": {
        "article_id": "https://www.undrr.org/news/invisible-costs-wildfire-disasters-2025",
        "title": "The invisible costs of wildfire disasters in 2025",
        "snippet": "",
        "url": "https://www.undrr.org/news/invisible-costs-wildfire-disasters-2025",
        "source": "UNDRR",
        "published_at": "01/13/2026, 08:00 AM, +0000 UTC",
        "wire": "fire",
        "fetched_at": "2026-05-04T17:02:41.019788+00:00",
        "mention_text": null,
        "osm_display": null,
        "osm_type": null,
        "geocoded": false,
        "event_type": "wildfire_event",
        "firms_dist_km": null,
        "firms_frp_mw": null,
        "firms_brightness": null,
        "firms_acq_datetime": null,
        "firms_confidence": null,
        "firms_daynight": null,
        "firms_active_fire_nearby": null,
        "run_at": "2026-05-04T17:08:08.975202+00:00"
      }
    },
    {
      "type": "Feature",
      "geometry": null,
      "properties": {
        "article_id": "https://www.faa.gov/uas/public_safety_gov/uas-wildfire-response",
        "title": "UAS in Wildfire Response",
        "snippet": "",
        "url": "https://www.faa.gov/uas/public_safety_gov/uas-wildfire-response",
        "source": "Federal Aviation Administration (.gov)",
        "published_at": "01/23/2026, 08:00 AM, +0000 UTC",
        "wire": "fire",
        "fetched_at": "2026-05-04T17:02:41.019788+00:00",
        "mention_text": null,
        "osm_display": null,
        "osm_type": null,
        "geocoded": false,
        "event_type": "wildfire_event",
        "firms_dist_km": null,
        "firms_frp_mw": null,
        "firms_brightness": null,
        "firms_acq_datetime": null,
        "firms_confidence": null,
        "firms_daynight": null,
        "firms_active_fire_nearby": null,
        "run_at": "2026-05-04T17:08:08.975202+00:00"
      }
    },
    {
      "type": "Feature",
      "geometry": null,
      "properties": {
        "article_id": "https://www.theguardian.com/world/2026/apr/14/wildfire-cattle-ranchers-american-great-plains",
        "title": "\u2018Nothing but tree skeletons\u2019: record-breaking wildfires devastate US cattle country",
        "snippet": "",
        "url": "https://www.theguardian.com/world/2026/apr/14/wildfire-cattle-ranchers-american-great-plains",
        "source": "The Guardian",
        "published_at": "04/14/2026, 07:00 AM, +0000 UTC",
        "wire": "fire",
        "fetched_at": "2026-05-04T17:02:41.019788+00:00",
        "mention_text": null,
        "osm_display": null,
        "osm_type": null,
        "geocoded": false,
        "event_type": "wildfire_event",
        "firms_dist_km": null,
        "firms_frp_mw": null,
        "firms_brightness": null,
        "firms_acq_datetime": null,
        "firms_confidence": null,
        "firms_daynight": null,
        "firms_active_fire_nearby": null,
        "run_at": "2026-05-04T17:08:08.975202+00:00"
      }
    },
    {
      "type": "Feature",
      "geometry": null,
      "properties": {
        "article_id": "https://news.climate.columbia.edu/2026/01/20/get-ready-for-smokier-air-record-2023-wildfire-smoke-marks-long-term-shift-in-north-american-air-quality/",
        "title": "Get Ready for Smokier Air: Record 2023 Wildfire Smoke Marks Long-Term Shift in North American Air Quality",
        "snippet": "",
        "url": "https://news.climate.columbia.edu/2026/01/20/get-ready-for-smokier-air-record-2023-wildfire-smoke-marks-long-term-shift-in-north-american-air-quality/",
        "source": "Columbia University",
        "published_at": "01/20/2026, 08:00 AM, +0000 UTC",
        "wire": "fire",
        "fetched_at": "2026-05-04T17:02:41.019788+00:00",
        "mention_text": null,
        "osm_display": null,
        "osm_type": null,
        "geocoded": false,
        "event_type": "wildfire_event",
        "firms_dist_km": null,
        "firms_frp_mw": null,
        "firms_brightness": null,
        "firms_acq_datetime": null,
        "firms_confidence": null,
        "firms_daynight": null,
        "firms_active_fire_nearby": null,
        "run_at": "2026-05-04T17:08:08.975202+00:00"
      }
    },
    {
      "type": "Feature",
      "geometry": null,
      "properties": {
        "article_id": "https://oehha.ca.gov/climate-change/epic-2022/impacts-vegetation-and-wildlife/wildfires",
        "title": "Wildfires",
        "snippet": "",
        "url": "https://oehha.ca.gov/climate-change/epic-2022/impacts-vegetation-and-wildlife/wildfires",
        "source": "Office of Environmental Health Hazard Assessment (.gov)",
        "published_at": "10/24/2025, 07:00 AM, +0000 UTC",
        "wire": "fire",
        "fetched_at": "2026-05-04T17:02:41.019788+00:00",
        "mention_text": null,
        "osm_display": null,
        "osm_type": null,
        "geocoded": false,
        "event_type": "wildfire_event",
        "firms_dist_km": null,
        "firms_frp_mw": null,
        "firms_brightness": null,
        "firms_acq_datetime": null,
        "firms_confidence": null,
        "firms_daynight": null,
        "firms_active_fire_nearby": null,
        "run_at": "2026-05-04T17:08:08.975202+00:00"
      }
    },
    {
      "type": "Feature",
      "geometry": null,
      "properties": {
        "article_id": "https://research.noaa.gov/an-experimental-noaa-tool-that-predicts-hourly-wildfire-hazards-across-the-u-s/",
        "title": "An experimental NOAA tool that predicts hourly wildfire hazards across the U.S.",
        "snippet": "",
        "url": "https://research.noaa.gov/an-experimental-noaa-tool-that-predicts-hourly-wildfire-hazards-across-the-u-s/",
        "source": "National Oceanic and Atmospheric Administration (.gov)",
        "published_at": "08/28/2025, 07:00 AM, +0000 UTC",
        "wire": "fire",
        "fetched_at": "2026-05-04T17:02:41.019788+00:00",
        "mention_text": null,
        "osm_display": null,
        "osm_type": null,
        "geocoded": false,
        "event_type": "wildfire_event",
        "firms_dist_km": null,
        "firms_frp_mw": null,
        "firms_brightness": null,
        "firms_acq_datetime": null,
        "firms_confidence": null,
        "firms_daynight": null,
        "firms_active_fire_nearby": null,
        "run_at": "2026-05-04T17:08:08.975202+00:00"
      }
    },
    {
      "type": "Feature",
      "geometry": null,
      "properties": {
        "article_id": "https://www.statista.com/statistics/217072/number-of-fires-and-acres-burned-due-to-us-wildfires/",
        "title": "Area burned by wildfires in the U.S. 2025, by state",
        "snippet": "",
        "url": "https://www.statista.com/statistics/217072/number-of-fires-and-acres-burned-due-to-us-wildfires/",
        "source": "Statista",
        "published_at": "04/07/2026, 07:00 AM, +0000 UTC",
        "wire": "fire",
        "fetched_at": "2026-05-04T17:02:41.019788+00:00",
        "mention_text": null,
        "osm_display": null,
        "osm_type": null,
        "geocoded": false,
        "event_type": "wildfire_event",
        "firms_dist_km": null,
        "firms_frp_mw": null,
        "firms_brightness": null,
        "firms_acq_datetime": null,
        "firms_confidence": null,
        "firms_daynight": null,
        "firms_active_fire_nearby": null,
        "run_at": "2026-05-04T17:08:08.975202+00:00"
      }
    },
    {
      "type": "Feature",
      "geometry": null,
      "properties": {
        "article_id": "https://www.iqair.com/us/newsroom/wildfire-map-spotlight-sargent-fire-georgia-florida-border",
        "title": "Wildfire Map Spotlight: Sargent Fire, Georgia-Florida Border",
        "snippet": "",
        "url": "https://www.iqair.com/us/newsroom/wildfire-map-spotlight-sargent-fire-georgia-florida-border",
        "source": "IQAir",
        "published_at": "04/10/2026, 07:00 AM, +0000 UTC",
        "wire": "fire",
        "fetched_at": "2026-05-04T17:02:41.019788+00:00",
        "mention_text": null,
        "osm_display": null,
        "osm_type": null,
        "geocoded": false,
        "event_type": "wildfire_event",
        "firms_dist_km": null,
        "firms_frp_mw": null,
        "firms_brightness": null,
        "firms_acq_datetime": null,
        "firms_confidence": null,
        "firms_daynight": null,
        "firms_active_fire_nearby": null,
        "run_at": "2026-05-04T17:08:08.975202+00:00"
      }
    },
    {
      "type": "Feature",
      "geometry": null,
      "properties": {
        "article_id": "https://www.iqair.com/us/newsroom/wildfire-map-spotlight-national-fire-florida",
        "title": "Wildfire Map Spotlight: National Fire, Florida",
        "snippet": "",
        "url": "https://www.iqair.com/us/newsroom/wildfire-map-spotlight-national-fire-florida",
        "source": "IQAir",
        "published_at": "03/18/2026, 07:00 AM, +0000 UTC",
        "wire": "fire",
        "fetched_at": "2026-05-04T17:02:41.019788+00:00",
        "mention_text": null,
        "osm_display": null,
        "osm_type": null,
        "geocoded": false,
        "event_type": "wildfire_event",
        "firms_dist_km": null,
        "firms_frp_mw": null,
        "firms_brightness": null,
        "firms_acq_datetime": null,
        "firms_confidence": null,
        "firms_daynight": null,
        "firms_active_fire_nearby": null,
        "run_at": "2026-05-04T17:08:08.975202+00:00"
      }
    },
    {
      "type": "Feature",
      "geometry": null,
      "properties": {
        "article_id": "https://www.drought.gov/news/updated-95-summer-2025-drought-and-wildfire-10-maps-2025-08-06",
        "title": "Updated 9/5: Summer 2025 Drought and Wildfire in 10 Maps | August 6, 2025",
        "snippet": "",
        "url": "https://www.drought.gov/news/updated-95-summer-2025-drought-and-wildfire-10-maps-2025-08-06",
        "source": "Drought.gov",
        "published_at": "08/06/2025, 07:00 AM, +0000 UTC",
        "wire": "fire",
        "fetched_at": "2026-05-04T17:02:41.019788+00:00",
        "mention_text": null,
        "osm_display": null,
        "osm_type": null,
        "geocoded": false,
        "event_type": "wildfire_event",
        "firms_dist_km": null,
        "firms_frp_mw": null,
        "firms_brightness": null,
        "firms_acq_datetime": null,
        "firms_confidence": null,
        "firms_daynight": null,
        "firms_active_fire_nearby": null,
        "run_at": "2026-05-04T17:08:08.975202+00:00"
      }
    },
    {
      "type": "Feature",
      "geometry": null,
      "properties": {
        "article_id": "https://www.blm.gov/blog/2026-01-20/strategic-fuel-break-prevents-wildfire-spread-across-us-mexico-border",
        "title": "Strategic fuel break prevents wildfire spread across U.S.\u2013Mexico border",
        "snippet": "",
        "url": "https://www.blm.gov/blog/2026-01-20/strategic-fuel-break-prevents-wildfire-spread-across-us-mexico-border",
        "source": "Bureau of Land Management (.gov)",
        "published_at": "01/20/2026, 08:00 AM, +0000 UTC",
        "wire": "fire",
        "fetched_at": "2026-05-04T17:02:41.019788+00:00",
        "mention_text": null,
        "osm_display": null,
        "osm_type": null,
        "geocoded": false,
        "event_type": "wildfire_event",
        "firms_dist_km": null,
        "firms_frp_mw": null,
        "firms_brightness": null,
        "firms_acq_datetime": null,
        "firms_confidence": null,
        "firms_daynight": null,
        "firms_active_fire_nearby": null,
        "run_at": "2026-05-04T17:08:08.975202+00:00"
      }
    },
    {
      "type": "Feature",
      "geometry": null,
      "properties": {
        "article_id": "https://www.epa.gov/wildfire-smoke-course/wildfire-smoke-growing-public-health-concern",
        "title": "Wildfire Smoke - A Growing Public Health Concern",
        "snippet": "",
        "url": "https://www.epa.gov/wildfire-smoke-course/wildfire-smoke-growing-public-health-concern",
        "source": "U.S. Environmental Protection Agency (.gov)",
        "published_at": "09/30/2025, 07:00 AM, +0000 UTC",
        "wire": "fire",
        "fetched_at": "2026-05-04T17:02:41.019788+00:00",
        "mention_text": null,
        "osm_display": null,
        "osm_type": null,
        "geocoded": false,
        "event_type": "wildfire_event",
        "firms_dist_km": null,
        "firms_frp_mw": null,
        "firms_brightness": null,
        "firms_acq_datetime": null,
        "firms_confidence": null,
        "firms_daynight": null,
        "firms_active_fire_nearby": null,
        "run_at": "2026-05-04T17:08:08.975202+00:00"
      }
    },
    {
      "type": "Feature",
      "geometry": null,
      "properties": {
        "article_id": "https://www.iqair.com/newsroom/wildfire-map-spotlight-morrill-fire-nebraska",
        "title": "Wildfire Map Spotlight: Morrill Fire, Nebraska",
        "snippet": "",
        "url": "https://www.iqair.com/newsroom/wildfire-map-spotlight-morrill-fire-nebraska",
        "source": "IQAir",
        "published_at": "03/26/2026, 07:00 AM, +0000 UTC",
        "wire": "fire",
        "fetched_at": "2026-05-04T17:02:41.019788+00:00",
        "mention_text": null,
        "osm_display": null,
        "osm_type": null,
        "geocoded": false,
        "event_type": "wildfire_event",
        "firms_dist_km": null,
        "firms_frp_mw": null,
        "firms_brightness": null,
        "firms_acq_datetime": null,
        "firms_confidence": null,
        "firms_daynight": null,
        "firms_active_fire_nearby": null,
        "run_at": "2026-05-04T17:08:08.975202+00:00"
      }
    },
    {
      "type": "Feature",
      "geometry": null,
      "properties": {
        "article_id": "https://ecology.wa.gov/blog/october-2025/2025-wildfire-season-air-quality-in-review",
        "title": "2025 wildfire season: air quality in review",
        "snippet": "",
        "url": "https://ecology.wa.gov/blog/october-2025/2025-wildfire-season-air-quality-in-review",
        "source": "Department of Ecology - State of Washington (.gov)",
        "published_at": "10/17/2025, 07:00 AM, +0000 UTC",
        "wire": "fire",
        "fetched_at": "2026-05-04T17:02:41.019788+00:00",
        "mention_text": null,
        "osm_display": null,
        "osm_type": null,
        "geocoded": false,
        "event_type": "wildfire_event",
        "firms_dist_km": null,
        "firms_frp_mw": null,
        "firms_brightness": null,
        "firms_acq_datetime": null,
        "firms_confidence": null,
        "firms_daynight": null,
        "firms_active_fire_nearby": null,
        "run_at": "2026-05-04T17:08:08.975202+00:00"
      }
    },
    {
      "type": "Feature",
      "geometry": null,
      "properties": {
        "article_id": "https://www.fs.usda.gov/r05/shasta-trinity/newsroom/stories/anatomy-fire-response-how-usfs-wildland-firefighters-tackle",
        "title": "Shasta-Trinity National Forest | Anatomy of a fire response: How USFS wildland firefighters tackle wildfires",
        "snippet": "",
        "url": "https://www.fs.usda.gov/r05/shasta-trinity/newsroom/stories/anatomy-fire-response-how-usfs-wildland-firefighters-tackle",
        "source": "US Forest Service (.gov)",
        "published_at": "09/30/2025, 07:00 AM, +0000 UTC",
        "wire": "fire",
        "fetched_at": "2026-05-04T17:02:41.019788+00:00",
        "mention_text": null,
        "osm_display": null,
        "osm_type": null,
        "geocoded": false,
        "event_type": "wildfire_event",
        "firms_dist_km": null,
        "firms_frp_mw": null,
        "firms_brightness": null,
        "firms_acq_datetime": null,
        "firms_confidence": null,
        "firms_daynight": null,
        "firms_active_fire_nearby": null,
        "run_at": "2026-05-04T17:08:08.975202+00:00"
      }
    },
    {
      "type": "Feature",
      "geometry": null,
      "properties": {
        "article_id": "https://www.fs.usda.gov/about-agency/features/post-wildfire-restoration-2018-camp-fire-area-plumas-national-forest",
        "title": "Post-wildfire restoration in the 2018 Camp Fire area on the Plumas National Forest",
        "snippet": "",
        "url": "https://www.fs.usda.gov/about-agency/features/post-wildfire-restoration-2018-camp-fire-area-plumas-national-forest",
        "source": "US Forest Service (.gov)",
        "published_at": "02/11/2026, 08:00 AM, +0000 UTC",
        "wire": "fire",
        "fetched_at": "2026-05-04T17:02:41.019788+00:00",
        "mention_text": null,
        "osm_display": null,
        "osm_type": null,
        "geocoded": false,
        "event_type": "wildfire_event",
        "firms_dist_km": null,
        "firms_frp_mw": null,
        "firms_brightness": null,
        "firms_acq_datetime": null,
        "firms_confidence": null,
        "firms_daynight": null,
        "firms_active_fire_nearby": null,
        "run_at": "2026-05-04T17:08:08.975202+00:00"
      }
    },
    {
      "type": "Feature",
      "geometry": null,
      "properties": {
        "article_id": "https://www.nature.com/articles/s43247-025-02427-6",
        "title": "Wildfires drive multi-year water quality degradation over the western United States",
        "snippet": "",
        "url": "https://www.nature.com/articles/s43247-025-02427-6",
        "source": "Nature",
        "published_at": "06/23/2025, 07:00 AM, +0000 UTC",
        "wire": "fire",
        "fetched_at": "2026-05-04T17:02:41.019788+00:00",
        "mention_text": null,
        "osm_display": null,
        "osm_type": null,
        "geocoded": false,
        "event_type": "wildfire_event",
        "firms_dist_km": null,
        "firms_frp_mw": null,
        "firms_brightness": null,
        "firms_acq_datetime": null,
        "firms_confidence": null,
        "firms_daynight": null,
        "firms_active_fire_nearby": null,
        "run_at": "2026-05-04T17:08:08.975202+00:00"
      }
    },
    {
      "type": "Feature",
      "geometry": null,
      "properties": {
        "article_id": "https://www.army.mil/article/289056/u_s_army_corps_of_engineers_reflects_on_record_breaking_wildfire_debris_mission",
        "title": "U.S. Army Corps of Engineers reflects on record-breaking wildfire debris mission",
        "snippet": "",
        "url": "https://www.army.mil/article/289056/u_s_army_corps_of_engineers_reflects_on_record_breaking_wildfire_debris_mission",
        "source": "army.mil",
        "published_at": "11/17/2025, 08:00 AM, +0000 UTC",
        "wire": "fire",
        "fetched_at": "2026-05-04T17:02:41.019788+00:00",
        "mention_text": null,
        "osm_display": null,
        "osm_type": null,
        "geocoded": false,
        "event_type": "wildfire_event",
        "firms_dist_km": null,
        "firms_frp_mw": null,
        "firms_brightness": null,
        "firms_acq_datetime": null,
        "firms_confidence": null,
        "firms_daynight": null,
        "firms_active_fire_nearby": null,
        "run_at": "2026-05-04T17:08:08.975202+00:00"
      }
    },
    {
      "type": "Feature",
      "geometry": null,
      "properties": {
        "article_id": "https://www.army.mil/article/291065/arizona_army_national_guard_strengthens_skills_for_wildfire_response",
        "title": "Arizona Army National Guard strengthens skills for wildfire response",
        "snippet": "",
        "url": "https://www.army.mil/article/291065/arizona_army_national_guard_strengthens_skills_for_wildfire_response",
        "source": "army.mil",
        "published_at": "03/12/2026, 07:00 AM, +0000 UTC",
        "wire": "fire",
        "fetched_at": "2026-05-04T17:02:41.019788+00:00",
        "mention_text": null,
        "osm_display": null,
        "osm_type": null,
        "geocoded": false,
        "event_type": "wildfire_event",
        "firms_dist_km": null,
        "firms_frp_mw": null,
        "firms_brightness": null,
        "firms_acq_datetime": null,
        "firms_confidence": null,
        "firms_daynight": null,
        "firms_active_fire_nearby": null,
        "run_at": "2026-05-04T17:08:08.975202+00:00"
      }
    },
    {
      "type": "Feature",
      "geometry": null,
      "properties": {
        "article_id": "https://www.honolulu.gov/dem/wildfire/",
        "title": "Wildfire | Department of Emergency Management",
        "snippet": "",
        "url": "https://www.honolulu.gov/dem/wildfire/",
        "source": "City and County of Honolulu (.gov)",
        "published_at": "07/07/2025, 01:50 AM, +0000 UTC",
        "wire": "fire",
        "fetched_at": "2026-05-04T17:02:41.019788+00:00",
        "mention_text": null,
        "osm_display": null,
        "osm_type": null,
        "geocoded": false,
        "event_type": "wildfire_event",
        "firms_dist_km": null,
        "firms_frp_mw": null,
        "firms_brightness": null,
        "firms_acq_datetime": null,
        "firms_confidence": null,
        "firms_daynight": null,
        "firms_active_fire_nearby": null,
        "run_at": "2026-05-04T17:08:08.975202+00:00"
      }
    },
    {
      "type": "Feature",
      "geometry": null,
      "properties": {
        "article_id": "https://www.bu.edu/sph/news/articles/2025/death-count-for-2025-la-county-wildfires-likely-hundreds-higher-than-official-records-show/",
        "title": "Death Count for 2025 LA County Wildfires Likely Hundreds Higher than Official Records Show",
        "snippet": "",
        "url": "https://www.bu.edu/sph/news/articles/2025/death-count-for-2025-la-county-wildfires-likely-hundreds-higher-than-official-records-show/",
        "source": "Boston University",
        "published_at": "08/07/2025, 07:00 AM, +0000 UTC",
        "wire": "fire",
        "fetched_at": "2026-05-04T17:02:41.019788+00:00",
        "mention_text": null,
        "osm_display": null,
        "osm_type": null,
        "geocoded": false,
        "event_type": "wildfire_event",
        "firms_dist_km": null,
        "firms_frp_mw": null,
        "firms_brightness": null,
        "firms_acq_datetime": null,
        "firms_confidence": null,
        "firms_daynight": null,
        "firms_active_fire_nearby": null,
        "run_at": "2026-05-04T17:08:08.975202+00:00"
      }
    },
    {
      "type": "Feature",
      "geometry": null,
      "properties": {
        "article_id": "https://www.nps.gov/articles/000/wildfire-and-archeology-in-the-jemez-mountains.htm",
        "title": "Wildfire and Archeology in the Jemez Mountains",
        "snippet": "",
        "url": "https://www.nps.gov/articles/000/wildfire-and-archeology-in-the-jemez-mountains.htm",
        "source": "National Park Service (.gov)",
        "published_at": "08/07/2025, 07:00 AM, +0000 UTC",
        "wire": "fire",
        "fetched_at": "2026-05-04T17:02:41.019788+00:00",
        "mention_text": null,
        "osm_display": null,
        "osm_type": null,
        "geocoded": false,
        "event_type": "wildfire_event",
        "firms_dist_km": null,
        "firms_frp_mw": null,
        "firms_brightness": null,
        "firms_acq_datetime": null,
        "firms_confidence": null,
        "firms_daynight": null,
        "firms_active_fire_nearby": null,
        "run_at": "2026-05-04T17:08:08.975202+00:00"
      }
    },
    {
      "type": "Feature",
      "geometry": null,
      "properties": {
        "article_id": "https://www.nytimes.com/2025/10/02/climate/wildfire-damage-increasing.html",
        "title": "Costly and Deadly Wildfires Really Are on the Rise, New Research Finds",
        "snippet": "",
        "url": "https://www.nytimes.com/2025/10/02/climate/wildfire-damage-increasing.html",
        "source": "The New York Times",
        "published_at": "10/02/2025, 07:00 AM, +0000 UTC",
        "wire": "fire",
        "fetched_at": "2026-05-04T17:02:41.019788+00:00",
        "mention_text": null,
        "osm_display": null,
        "osm_type": null,
        "geocoded": false,
        "event_type": "wildfire_event",
        "firms_dist_km": null,
        "firms_frp_mw": null,
        "firms_brightness": null,
        "firms_acq_datetime": null,
        "firms_confidence": null,
        "firms_daynight": null,
        "firms_active_fire_nearby": null,
        "run_at": "2026-05-04T17:08:08.975202+00:00"
      }
    },
    {
      "type": "Feature",
      "geometry": null,
      "properties": {
        "article_id": "https://www.npca.org/articles/10013-when-heartbreaking-wildfire-overtakes-a-canyon",
        "title": "When Heartbreaking Wildfire Overtakes a Canyon",
        "snippet": "",
        "url": "https://www.npca.org/articles/10013-when-heartbreaking-wildfire-overtakes-a-canyon",
        "source": "National Parks Conservation Association",
        "published_at": "07/28/2025, 07:00 AM, +0000 UTC",
        "wire": "fire",
        "fetched_at": "2026-05-04T17:02:41.019788+00:00",
        "mention_text": null,
        "osm_display": null,
        "osm_type": null,
        "geocoded": false,
        "event_type": "wildfire_event",
        "firms_dist_km": null,
        "firms_frp_mw": null,
        "firms_brightness": null,
        "firms_acq_datetime": null,
        "firms_confidence": null,
        "firms_daynight": null,
        "firms_active_fire_nearby": null,
        "run_at": "2026-05-04T17:08:08.975202+00:00"
      }
    },
    {
      "type": "Feature",
      "geometry": null,
      "properties": {
        "article_id": "https://www.army.mil/article/287562/usace_marks_two_years_of_support_in_maui_wildfire_recovery",
        "title": "USACE Marks Two Years of Support in Maui Wildfire Recovery",
        "snippet": "",
        "url": "https://www.army.mil/article/287562/usace_marks_two_years_of_support_in_maui_wildfire_recovery",
        "source": "army.mil",
        "published_at": "08/05/2025, 07:00 AM, +0000 UTC",
        "wire": "fire",
        "fetched_at": "2026-05-04T17:02:41.019788+00:00",
        "mention_text": null,
        "osm_display": null,
        "osm_type": null,
        "geocoded": false,
        "event_type": "wildfire_event",
        "firms_dist_km": null,
        "firms_frp_mw": null,
        "firms_brightness": null,
        "firms_acq_datetime": null,
        "firms_confidence": null,
        "firms_daynight": null,
        "firms_active_fire_nearby": null,
        "run_at": "2026-05-04T17:08:08.975202+00:00"
      }
    },
    {
      "type": "Feature",
      "geometry": null,
      "properties": {
        "article_id": "https://www.courthousenews.com/court-trims-federal-immunity-in-oregon-wildfire-suit/",
        "title": "Court trims federal immunity in Oregon wildfire suit",
        "snippet": "",
        "url": "https://www.courthousenews.com/court-trims-federal-immunity-in-oregon-wildfire-suit/",
        "source": "Courthouse News",
        "published_at": "02/11/2026, 08:00 AM, +0000 UTC",
        "wire": "fire",
        "fetched_at": "2026-05-04T17:02:41.019788+00:00",
        "mention_text": null,
        "osm_display": null,
        "osm_type": null,
        "geocoded": false,
        "event_type": "wildfire_event",
        "firms_dist_km": null,
        "firms_frp_mw": null,
        "firms_brightness": null,
        "firms_acq_datetime": null,
        "firms_confidence": null,
        "firms_daynight": null,
        "firms_active_fire_nearby": null,
        "run_at": "2026-05-04T17:08:08.975202+00:00"
      }
    },
    {
      "type": "Feature",
      "geometry": {
        "type": "Point",
        "coordinates": [
          -111.431221,
          33.729759
        ]
      },
      "properties": {
        "article_id": "https://www.bbc.com/news/videos/cwy2pxkkkdjo",
        "title": "Wildfire tears through hundreds of acres in Arizona",
        "snippet": "",
        "url": "https://www.bbc.com/news/videos/cwy2pxkkkdjo",
        "source": "BBC",
        "published_at": "05/04/2026, 03:04 AM, +0000 UTC",
        "wire": "fire",
        "fetched_at": "2026-05-06T10:08:00.179618+00:00",
        "outlet_region": "Arizona",
        "mention_text": "Arizona",
        "osm_display": "Arizona",
        "osm_type": "state",
        "geocoded": true,
        "event_type": "wildfire_event",
        "firms_dist_km": 63.17,
        "firms_frp_mw": 6.22,
        "firms_brightness": 339.04,
        "firms_acq_datetime": "2026-05-05 2017",
        "firms_confidence": "nominal",
        "firms_daynight": "D",
        "firms_active_fire_nearby": true,
        "run_at": "2026-05-06T10:16:07.917878+00:00"
      }
    },
    {
      "type": "Feature",
      "geometry": {
        "type": "Point",
        "coordinates": [
          -83.643074,
          33.040619
        ]
      },
      "properties": {
        "article_id": "https://www.dvidshub.net/news/564337/georgia-dod-concludes-joint-wildfire-suppression-operations-south-georgia",
        "title": "News - Georgia DoD Concludes Joint Wildfire Suppression Operations in South Georgia",
        "snippet": "",
        "url": "https://www.dvidshub.net/news/564337/georgia-dod-concludes-joint-wildfire-suppression-operations-south-georgia",
        "source": "DVIDS",
        "published_at": "05/04/2026, 08:51 PM, +0000 UTC",
        "wire": "fire",
        "fetched_at": "2026-05-06T10:08:00.179618+00:00",
        "outlet_region": "Georgia",
        "mention_text": "South Georgia",
        "osm_display": "South Georgia",
        "osm_type": "state",
        "geocoded": true,
        "event_type": "wildfire_event",
        "firms_dist_km": 83.71,
        "firms_frp_mw": 0.98,
        "firms_brightness": 303.58,
        "firms_acq_datetime": "2026-05-05 0714",
        "firms_confidence": "nominal",
        "firms_daynight": "N",
        "firms_active_fire_nearby": true,
        "run_at": "2026-05-06T10:16:07.917878+00:00"
      }
    },
    {
      "type": "Feature",
      "geometry": {
        "type": "Point",
        "coordinates": [
          -121.490494,
          47.400902
        ]
      },
      "properties": {
        "article_id": "https://www.yoursourceone.com/columbia_basin/federal-dei-requirements-put-washington-wildfire-funding-forest-projects-at-risk/article_9255189a-3995-4d85-a1bb-4a5d9892feec.html",
        "title": "Federal DEI Requirements Put Washington Wildfire Funding, Forest Projects At Risk",
        "snippet": "",
        "url": "https://www.yoursourceone.com/columbia_basin/federal-dei-requirements-put-washington-wildfire-funding-forest-projects-at-risk/article_9255189a-3995-4d85-a1bb-4a5d9892feec.html",
        "source": "Source ONE News",
        "published_at": "05/06/2026, 02:24 AM, +0000 UTC",
        "wire": "fire",
        "fetched_at": "2026-05-06T10:08:00.179618+00:00",
        "outlet_region": "Washington",
        "mention_text": "washington",
        "osm_display": "washington",
        "osm_type": "state",
        "geocoded": true,
        "event_type": "wildfire_event",
        "firms_dist_km": 97.67,
        "firms_frp_mw": 7.28,
        "firms_brightness": 339.63,
        "firms_acq_datetime": "2026-05-05 2019",
        "firms_confidence": "nominal",
        "firms_daynight": "D",
        "firms_active_fire_nearby": true,
        "run_at": "2026-05-06T10:16:07.917878+00:00"
      }
    },
    {
      "type": "Feature",
      "geometry": {
        "type": "Point",
        "coordinates": [
          -83.643074,
          33.040619
        ]
      },
      "properties": {
        "article_id": "https://www.aol.com/articles/largest-wildfire-georgia-history-heres-174831768.html",
        "title": "What is the largest wildfire in Georgia history? Here's what to know",
        "snippet": "",
        "url": "https://www.aol.com/articles/largest-wildfire-georgia-history-heres-174831768.html",
        "source": "AOL.com",
        "published_at": "05/05/2026, 07:05 PM, +0000 UTC",
        "wire": "fire",
        "fetched_at": "2026-05-06T10:08:00.179618+00:00",
        "outlet_region": "Georgia",
        "mention_text": "Georgia",
        "osm_display": "Georgia",
        "osm_type": "state",
        "geocoded": true,
        "event_type": "wildfire_event",
        "firms_dist_km": 83.71,
        "firms_frp_mw": 0.98,
        "firms_brightness": 303.58,
        "firms_acq_datetime": "2026-05-05 0714",
        "firms_confidence": "nominal",
        "firms_daynight": "N",
        "firms_active_fire_nearby": true,
        "run_at": "2026-05-06T10:16:07.917878+00:00"
      }
    },
    {
      "type": "Feature",
      "geometry": {
        "type": "Point",
        "coordinates": [
          -111.862434,
          40.150032
        ]
      },
      "properties": {
        "article_id": "https://www.axios.com/local/salt-lake-city/2026/05/04/utah-wildfire-season-drought",
        "title": "Utah braces for \"dangerous\" wildfire season",
        "snippet": "",
        "url": "https://www.axios.com/local/salt-lake-city/2026/05/04/utah-wildfire-season-drought",
        "source": "Axios",
        "published_at": "05/04/2026, 12:04 PM, +0000 UTC",
        "wire": "fire",
        "fetched_at": "2026-05-06T10:08:00.179618+00:00",
        "outlet_region": "Utah",
        "mention_text": "Utah",
        "osm_display": "Utah",
        "osm_type": "state",
        "geocoded": true,
        "event_type": "wildfire_event",
        "firms_dist_km": null,
        "firms_frp_mw": null,
        "firms_brightness": null,
        "firms_acq_datetime": null,
        "firms_confidence": null,
        "firms_daynight": null,
        "firms_active_fire_nearby": false,
        "run_at": "2026-05-06T10:16:07.917878+00:00"
      }
    },
    {
      "type": "Feature",
      "geometry": {
        "type": "Point",
        "coordinates": [
          -83.643074,
          33.040619
        ]
      },
      "properties": {
        "article_id": "https://www.army.mil/article/291988/georgia_national_guard_aids_wildfire_suppression_efforts",
        "title": "Georgia National Guard aids wildfire suppression efforts",
        "snippet": "",
        "url": "https://www.army.mil/article/291988/georgia_national_guard_aids_wildfire_suppression_efforts",
        "source": "army.mil",
        "published_at": "04/27/2026, 07:00 AM, +0000 UTC",
        "wire": "fire",
        "fetched_at": "2026-05-06T10:08:00.179618+00:00",
        "outlet_region": "Georgia",
        "mention_text": "Georgia National Guard",
        "osm_display": "Georgia National Guard",
        "osm_type": "state",
        "geocoded": true,
        "event_type": "wildfire_event",
        "firms_dist_km": 83.71,
        "firms_frp_mw": 0.98,
        "firms_brightness": 303.58,
        "firms_acq_datetime": "2026-05-05 0714",
        "firms_confidence": "nominal",
        "firms_daynight": "N",
        "firms_active_fire_nearby": true,
        "run_at": "2026-05-06T10:16:07.917878+00:00"
      }
    },
    {
      "type": "Feature",
      "geometry": {
        "type": "Point",
        "coordinates": [
          -98.268082,
          41.12537
        ]
      },
      "properties": {
        "article_id": "https://www.army.mil/article/292046/nebraska_guard_conducts_joint_wildfire_response",
        "title": "Nebraska Guard conducts joint wildfire response",
        "snippet": "",
        "url": "https://www.army.mil/article/292046/nebraska_guard_conducts_joint_wildfire_response",
        "source": "army.mil",
        "published_at": "04/29/2026, 01:21 PM, +0000 UTC",
        "wire": "fire",
        "fetched_at": "2026-05-06T10:08:00.179618+00:00",
        "outlet_region": "Nebraska",
        "mention_text": "Nebraska Guard",
        "osm_display": "Nebraska Guard",
        "osm_type": "state",
        "geocoded": true,
        "event_type": "wildfire_event",
        "firms_dist_km": null,
        "firms_frp_mw": null,
        "firms_brightness": null,
        "firms_acq_datetime": null,
        "firms_confidence": null,
        "firms_daynight": null,
        "firms_active_fire_nearby": false,
        "run_at": "2026-05-06T10:16:07.917878+00:00"
      }
    },
    {
      "type": "Feature",
      "geometry": {
        "type": "Point",
        "coordinates": [
          -98.268082,
          41.12537
        ]
      },
      "properties": {
        "article_id": "https://www.nesdis.noaa.gov/news/noaas-wildfire-detection-system-game-changer-nebraskas-record-breaking-morrill-fire",
        "title": "NOAA\u2019s Wildfire Detection System a \u201cGame Changer\u201d for Nebraska\u2019s Record-Breaking Morrill Fire",
        "snippet": "",
        "url": "https://www.nesdis.noaa.gov/news/noaas-wildfire-detection-system-game-changer-nebraskas-record-breaking-morrill-fire",
        "source": "National Environmental Satellite, Data, and Information Service (.gov)",
        "published_at": "04/09/2026, 07:00 AM, +0000 UTC",
        "wire": "fire",
        "fetched_at": "2026-05-06T10:08:00.179618+00:00",
        "outlet_region": "Nebraska",
        "mention_text": "Nebraska",
        "osm_display": "Nebraska",
        "osm_type": "state",
        "geocoded": true,
        "event_type": "wildfire_event",
        "firms_dist_km": null,
        "firms_frp_mw": null,
        "firms_brightness": null,
        "firms_acq_datetime": null,
        "firms_confidence": null,
        "firms_daynight": null,
        "firms_active_fire_nearby": false,
        "run_at": "2026-05-06T10:16:07.917878+00:00"
      }
    },
    {
      "type": "Feature",
      "geometry": {
        "type": "Point",
        "coordinates": [
          -81.686783,
          27.766279
        ]
      },
      "properties": {
        "article_id": "https://www.iqair.com/us/newsroom/wildfire-map-spotlight-national-fire-florida",
        "title": "Wildfire Map Spotlight: National Fire, Florida",
        "snippet": "",
        "url": "https://www.iqair.com/us/newsroom/wildfire-map-spotlight-national-fire-florida",
        "source": "IQAir",
        "published_at": "03/18/2026, 07:00 AM, +0000 UTC",
        "wire": "fire",
        "fetched_at": "2026-05-06T10:08:00.179618+00:00",
        "outlet_region": "Florida",
        "mention_text": "Florida",
        "osm_display": "Florida",
        "osm_type": "state",
        "geocoded": true,
        "event_type": "wildfire_event",
        "firms_dist_km": 60.63,
        "firms_frp_mw": 4.48,
        "firms_brightness": 332.42,
        "firms_acq_datetime": "2026-05-05 1832",
        "firms_confidence": "low",
        "firms_daynight": "D",
        "firms_active_fire_nearby": true,
        "run_at": "2026-05-06T10:16:07.917878+00:00"
      }
    },
    {
      "type": "Feature",
      "geometry": {
        "type": "Point",
        "coordinates": [
          -83.643074,
          33.040619
        ]
      },
      "properties": {
        "article_id": "https://www.iqair.com/us/newsroom/wildfire-map-spotlight-sargent-fire-georgia-florida-border",
        "title": "Wildfire Map Spotlight: Sargent Fire, Georgia-Florida Border",
        "snippet": "",
        "url": "https://www.iqair.com/us/newsroom/wildfire-map-spotlight-sargent-fire-georgia-florida-border",
        "source": "IQAir",
        "published_at": "04/10/2026, 07:00 AM, +0000 UTC",
        "wire": "fire",
        "fetched_at": "2026-05-06T10:08:00.179618+00:00",
        "outlet_region": "Georgia",
        "mention_text": "Georgia",
        "osm_display": "Georgia",
        "osm_type": "state",
        "geocoded": true,
        "event_type": "wildfire_event",
        "firms_dist_km": 83.71,
        "firms_frp_mw": 0.98,
        "firms_brightness": 303.58,
        "firms_acq_datetime": "2026-05-05 0714",
        "firms_confidence": "nominal",
        "firms_daynight": "N",
        "firms_active_fire_nearby": true,
        "run_at": "2026-05-06T10:16:07.917878+00:00"
      }
    },
    {
      "type": "Feature",
      "geometry": {
        "type": "Point",
        "coordinates": [
          -98.268082,
          41.12537
        ]
      },
      "properties": {
        "article_id": "https://www.iqair.com/newsroom/wildfire-map-spotlight-morrill-fire-nebraska",
        "title": "Wildfire Map Spotlight: Morrill Fire, Nebraska",
        "snippet": "",
        "url": "https://www.iqair.com/newsroom/wildfire-map-spotlight-morrill-fire-nebraska",
        "source": "IQAir",
        "published_at": "03/26/2026, 07:00 AM, +0000 UTC",
        "wire": "fire",
        "fetched_at": "2026-05-06T10:08:00.179618+00:00",
        "outlet_region": "Nebraska",
        "mention_text": "Nebraska",
        "osm_display": "Nebraska",
        "osm_type": "state",
        "geocoded": true,
        "event_type": "wildfire_event",
        "firms_dist_km": null,
        "firms_frp_mw": null,
        "firms_brightness": null,
        "firms_acq_datetime": null,
        "firms_confidence": null,
        "firms_daynight": null,
        "firms_active_fire_nearby": false,
        "run_at": "2026-05-06T10:16:07.917878+00:00"
      }
    },
    {
      "type": "Feature",
      "geometry": {
        "type": "Point",
        "coordinates": [
          -84.536095,
          43.326618
        ]
      },
      "properties": {
        "article_id": "https://bergman.house.gov/news/documentsingle.aspx?DocumentID=1456",
        "title": "Bergman to Canada: Take Action on Wildfire Smoke Impacting Michigan",
        "snippet": "",
        "url": "https://bergman.house.gov/news/documentsingle.aspx?DocumentID=1456",
        "source": "U.S. Representative Jack Bergman (.gov)",
        "published_at": "08/04/2025, 07:00 AM, +0000 UTC",
        "wire": "fire",
        "fetched_at": "2026-05-06T10:08:00.179618+00:00",
        "outlet_region": "Michigan",
        "mention_text": "Canada",
        "osm_display": "Canada, Michigan",
        "osm_type": "state",
        "geocoded": true,
        "event_type": "wildfire_event",
        "firms_dist_km": null,
        "firms_frp_mw": null,
        "firms_brightness": null,
        "firms_acq_datetime": null,
        "firms_confidence": null,
        "firms_daynight": null,
        "firms_active_fire_nearby": false,
        "run_at": "2026-05-06T10:16:07.917878+00:00"
      }
    },
    {
      "type": "Feature",
      "geometry": {
        "type": "Point",
        "coordinates": [
          -111.431221,
          33.729759
        ]
      },
      "properties": {
        "article_id": "https://www.travelandtourworld.com/news/article/arizona-wildfire-disaster-us-state-struggles-to-contain-blaze-as-hundreds-of-acres-burn-and-evacuations-mount/",
        "title": "Arizona Wildfire Disaster: US State Struggles to Contain Blaze as Hundreds of Acres Burn and Evacuations Mount",
        "snippet": "",
        "url": "https://www.travelandtourworld.com/news/article/arizona-wildfire-disaster-us-state-struggles-to-contain-blaze-as-hundreds-of-acres-burn-and-evacuations-mount/",
        "source": "Travel And Tour World",
        "published_at": "05/04/2026, 11:42 AM, +0000 UTC",
        "wire": "fire",
        "fetched_at": "2026-05-06T10:08:00.179618+00:00",
        "outlet_region": "Arizona",
        "mention_text": "Arizona",
        "osm_display": "Arizona",
        "osm_type": "state",
        "geocoded": true,
        "event_type": "wildfire_event",
        "firms_dist_km": 63.17,
        "firms_frp_mw": 6.22,
        "firms_brightness": 339.04,
        "firms_acq_datetime": "2026-05-05 2017",
        "firms_confidence": "nominal",
        "firms_daynight": "D",
        "firms_active_fire_nearby": true,
        "run_at": "2026-05-06T10:16:07.917878+00:00"
      }
    },
    {
      "type": "Feature",
      "geometry": {
        "type": "Point",
        "coordinates": [
          -110.588455,
          44.427963
        ]
      },
      "properties": {
        "article_id": "https://www.nps.gov/yell/learn/nature/fire.htm",
        "title": "Fire - Yellowstone National Park (U.S. National Park Service)",
        "snippet": "",
        "url": "https://www.nps.gov/yell/learn/nature/fire.htm",
        "source": "National Park Service (.gov)",
        "published_at": "03/12/2026, 07:00 AM, +0000 UTC",
        "wire": "fire",
        "fetched_at": "2026-05-06T10:08:00.179618+00:00",
        "outlet_region": null,
        "mention_text": "Yellowstone National Park",
        "osm_display": "Yellowstone National Park",
        "osm_type": "park",
        "geocoded": true,
        "event_type": "wildfire_event",
        "firms_dist_km": null,
        "firms_frp_mw": null,
        "firms_brightness": null,
        "firms_acq_datetime": null,
        "firms_confidence": null,
        "firms_daynight": null,
        "firms_active_fire_nearby": false,
        "run_at": "2026-05-06T10:16:07.917878+00:00"
      }
    },
    {
      "type": "Feature",
      "geometry": {
        "type": "Point",
        "coordinates": [
          -81.0756,
          26.0078
        ]
      },
      "properties": {
        "article_id": "https://www.nps.gov/bicy/learn/news/wildfire-update-big-cypress-national-preserve.htm",
        "title": "Wildfire Update \u2013 Big Cypress National Preserve",
        "snippet": "",
        "url": "https://www.nps.gov/bicy/learn/news/wildfire-update-big-cypress-national-preserve.htm",
        "source": "National Park Service (.gov)",
        "published_at": "02/24/2026, 08:00 AM, +0000 UTC",
        "wire": "fire",
        "fetched_at": "2026-05-06T10:08:00.179618+00:00",
        "outlet_region": null,
        "mention_text": "Big Cypress National Preserve",
        "osm_display": "Big Cypress National Preserve",
        "osm_type": "park",
        "geocoded": true,
        "event_type": "wildfire_event",
        "firms_dist_km": 74.87,
        "firms_frp_mw": 1.22,
        "firms_brightness": 315.37,
        "firms_acq_datetime": "2026-05-05 0716",
        "firms_confidence": "nominal",
        "firms_daynight": "N",
        "firms_active_fire_nearby": true,
        "run_at": "2026-05-06T10:16:07.917878+00:00"
      }
    },
    {
      "type": "Feature",
      "geometry": {
        "type": "Point",
        "coordinates": [
          -81.0756,
          26.0078
        ]
      },
      "properties": {
        "article_id": "https://www.wgcu.org/top-story/2026-02-25/wildfire-in-big-cypress-national-preserve-is-a-major-threat-to-motorists",
        "title": "A minor downgrade Friday for the Big Cypress National Preserve wildfire",
        "snippet": "",
        "url": "https://www.wgcu.org/top-story/2026-02-25/wildfire-in-big-cypress-national-preserve-is-a-major-threat-to-motorists",
        "source": "WGCU",
        "published_at": "03/06/2026, 08:00 AM, +0000 UTC",
        "wire": "fire",
        "fetched_at": "2026-05-06T10:08:00.179618+00:00",
        "outlet_region": null,
        "mention_text": "Big Cypress National Preserve",
        "osm_display": "Big Cypress National Preserve",
        "osm_type": "park",
        "geocoded": true,
        "event_type": "wildfire_event",
        "firms_dist_km": 74.87,
        "firms_frp_mw": 1.22,
        "firms_brightness": 315.37,
        "firms_acq_datetime": "2026-05-05 0716",
        "firms_confidence": "nominal",
        "firms_daynight": "N",
        "firms_active_fire_nearby": true,
        "run_at": "2026-05-06T10:16:07.917878+00:00"
      }
    },
    {
      "type": "Feature",
      "geometry": {
        "type": "Point",
        "coordinates": [
          -96.726486,
          38.5266
        ]
      },
      "properties": {
        "article_id": "https://www.iqair.com/us/newsroom/wildfire-map-spotlight-ranger-road-fire-oklahoma-panhandle-and-southern-kansas",
        "title": "Wildfire Map Spotlight: Ranger Road Fire, Oklahoma Panhandle and Southern Kansas",
        "snippet": "",
        "url": "https://www.iqair.com/us/newsroom/wildfire-map-spotlight-ranger-road-fire-oklahoma-panhandle-and-southern-kansas",
        "source": "IQAir",
        "published_at": "02/25/2026, 08:00 AM, +0000 UTC",
        "wire": "fire",
        "fetched_at": "2026-05-06T10:08:00.179618+00:00",
        "outlet_region": "Oklahoma",
        "mention_text": "Southern Kansas",
        "osm_display": "Southern Kansas, Oklahoma",
        "osm_type": "state",
        "geocoded": true,
        "event_type": "wildfire_event",
        "firms_dist_km": null,
        "firms_frp_mw": null,
        "firms_brightness": null,
        "firms_acq_datetime": null,
        "firms_confidence": null,
        "firms_daynight": null,
        "firms_active_fire_nearby": false,
        "run_at": "2026-05-06T10:16:07.917878+00:00"
      }
    },
    {
      "type": "Feature",
      "geometry": {
        "type": "Point",
        "coordinates": [
          -122.289993,
          40.766171
        ]
      },
      "properties": {
        "article_id": "https://www.fs.usda.gov/r05/shasta-trinity/newsroom/stories/anatomy-fire-response-how-usfs-wildland-firefighters-tackle",
        "title": "Shasta-Trinity National Forest | Anatomy of a fire response: How USFS wildland firefighters tackle wildfires",
        "snippet": "",
        "url": "https://www.fs.usda.gov/r05/shasta-trinity/newsroom/stories/anatomy-fire-response-how-usfs-wildland-firefighters-tackle",
        "source": "US Forest Service (.gov)",
        "published_at": "09/30/2025, 07:00 AM, +0000 UTC",
        "wire": "fire",
        "fetched_at": "2026-05-06T10:08:00.179618+00:00",
        "outlet_region": null,
        "mention_text": "Shasta",
        "osm_display": "Shasta",
        "osm_type": "peak",
        "geocoded": true,
        "event_type": "wildfire_event",
        "firms_dist_km": null,
        "firms_frp_mw": null,
        "firms_brightness": null,
        "firms_acq_datetime": null,
        "firms_confidence": null,
        "firms_daynight": null,
        "firms_active_fire_nearby": false,
        "run_at": "2026-05-06T10:16:07.917878+00:00"
      }
    }
  ],
  "metadata": {
    "wire": "fire",
    "last_updated": "2026-05-06T10:16:07.918454+00:00",
    "total_features": 59
  }
}