{
  "type": "FeatureCollection",
  "features": [
    {
      "type": "Feature",
      "geometry": null,
      "properties": {
        "article_id": "https://www.wccbcharlotte.com/2026/04/21/union-county-shifts-to-stage-1-water-conservation-due-to-ongoing-drought-conditions/",
        "title": "Union County implements water restriction measures due to ongoing drought conditions",
        "snippet": "",
        "url": "https://www.wccbcharlotte.com/2026/04/21/union-county-shifts-to-stage-1-water-conservation-due-to-ongoing-drought-conditions/",
        "source": "WCCB Charlotte",
        "published_at": "04/21/2026, 07:00 AM, +0000 UTC",
        "wire": "water",
        "fetched_at": "2026-05-04T16:55:06.385933+00:00",
        "mention_text": null,
        "osm_display": null,
        "osm_type": null,
        "geocoded": false,
        "event_type": "utility_restriction",
        "usgs_streamflow_site_no": null,
        "usgs_streamflow_name": null,
        "usgs_streamflow_dist_km": null,
        "usgs_streamflow_cfs": null,
        "usgs_gw_site_no": null,
        "usgs_gw_name": null,
        "usgs_gw_dist_km": null,
        "usgs_gw_depth_ft": null,
        "run_at": "2026-05-04T16:56:54.094658+00:00"
      }
    },
    {
      "type": "Feature",
      "geometry": null,
      "properties": {
        "article_id": "https://www.vox.com/climate/484618/snow-drought-heatwave-us-west-water-rationing-spring",
        "title": "The Western US is already running out of water \u2014 and summer is still months away",
        "snippet": "",
        "url": "https://www.vox.com/climate/484618/snow-drought-heatwave-us-west-water-rationing-spring",
        "source": "vox.com",
        "published_at": "04/03/2026, 07:00 AM, +0000 UTC",
        "wire": "water",
        "fetched_at": "2026-05-04T16:55:06.385933+00:00",
        "mention_text": null,
        "osm_display": null,
        "osm_type": null,
        "geocoded": false,
        "event_type": "water_scarcity_event",
        "usgs_streamflow_site_no": null,
        "usgs_streamflow_name": null,
        "usgs_streamflow_dist_km": null,
        "usgs_streamflow_cfs": null,
        "usgs_gw_site_no": null,
        "usgs_gw_name": null,
        "usgs_gw_dist_km": null,
        "usgs_gw_depth_ft": null,
        "run_at": "2026-05-04T16:56:54.094658+00:00"
      }
    },
    {
      "type": "Feature",
      "geometry": null,
      "properties": {
        "article_id": "https://www.hoover.org/research/california-adopts-permanent-water-rationing",
        "title": "California Adopts Permanent Water Rationing",
        "snippet": "",
        "url": "https://www.hoover.org/research/california-adopts-permanent-water-rationing",
        "source": "Hoover Institution",
        "published_at": "01/08/2025, 08:00 AM, +0000 UTC",
        "wire": "water",
        "fetched_at": "2026-05-04T16:55:06.385933+00:00",
        "mention_text": null,
        "osm_display": null,
        "osm_type": null,
        "geocoded": false,
        "event_type": "utility_restriction",
        "usgs_streamflow_site_no": null,
        "usgs_streamflow_name": null,
        "usgs_streamflow_dist_km": null,
        "usgs_streamflow_cfs": null,
        "usgs_gw_site_no": null,
        "usgs_gw_name": null,
        "usgs_gw_dist_km": null,
        "usgs_gw_depth_ft": null,
        "run_at": "2026-05-04T16:56:54.094658+00:00"
      }
    },
    {
      "type": "Feature",
      "geometry": null,
      "properties": {
        "article_id": "https://www.nature.com/articles/s44221-023-00173-7",
        "title": "Aquifer depletion exacerbates agricultural drought losses in the US High Plains",
        "snippet": "",
        "url": "https://www.nature.com/articles/s44221-023-00173-7",
        "source": "Nature",
        "published_at": "01/15/2024, 08:00 AM, +0000 UTC",
        "wire": "water",
        "fetched_at": "2026-05-04T16:55:06.385933+00:00",
        "mention_text": null,
        "osm_display": null,
        "osm_type": null,
        "geocoded": false,
        "event_type": "groundwater_decline",
        "usgs_streamflow_site_no": null,
        "usgs_streamflow_name": null,
        "usgs_streamflow_dist_km": null,
        "usgs_streamflow_cfs": null,
        "usgs_gw_site_no": null,
        "usgs_gw_name": null,
        "usgs_gw_dist_km": null,
        "usgs_gw_depth_ft": null,
        "run_at": "2026-05-04T16:56:54.094658+00:00"
      }
    },
    {
      "type": "Feature",
      "geometry": null,
      "properties": {
        "article_id": "https://www.nytimes.com/interactive/2023/08/28/climate/groundwater-drying-climate-change.html",
        "title": "America Is Using Up Its Groundwater Like There\u2019s No Tomorrow (Published 2023)",
        "snippet": "",
        "url": "https://www.nytimes.com/interactive/2023/08/28/climate/groundwater-drying-climate-change.html",
        "source": "The New York Times",
        "published_at": "08/28/2023, 07:00 AM, +0000 UTC",
        "wire": "water",
        "fetched_at": "2026-05-04T16:55:06.385933+00:00",
        "mention_text": null,
        "osm_display": null,
        "osm_type": null,
        "geocoded": false,
        "event_type": "groundwater_decline",
        "usgs_streamflow_site_no": null,
        "usgs_streamflow_name": null,
        "usgs_streamflow_dist_km": null,
        "usgs_streamflow_cfs": null,
        "usgs_gw_site_no": null,
        "usgs_gw_name": null,
        "usgs_gw_dist_km": null,
        "usgs_gw_depth_ft": null,
        "run_at": "2026-05-04T16:56:54.094658+00:00"
      }
    },
    {
      "type": "Feature",
      "geometry": null,
      "properties": {
        "article_id": "https://news.unl.edu/article/husker-study-finds-aquifer-depletion-threatens-crop-yields",
        "title": "Husker study finds aquifer depletion threatens crop yields",
        "snippet": "",
        "url": "https://news.unl.edu/article/husker-study-finds-aquifer-depletion-threatens-crop-yields",
        "source": "Nebraska Today",
        "published_at": "01/16/2024, 08:00 AM, +0000 UTC",
        "wire": "water",
        "fetched_at": "2026-05-04T16:55:06.385933+00:00",
        "mention_text": null,
        "osm_display": null,
        "osm_type": null,
        "geocoded": false,
        "event_type": "groundwater_decline",
        "usgs_streamflow_site_no": null,
        "usgs_streamflow_name": null,
        "usgs_streamflow_dist_km": null,
        "usgs_streamflow_cfs": null,
        "usgs_gw_site_no": null,
        "usgs_gw_name": null,
        "usgs_gw_dist_km": null,
        "usgs_gw_depth_ft": null,
        "run_at": "2026-05-04T16:56:54.094658+00:00"
      }
    },
    {
      "type": "Feature",
      "geometry": null,
      "properties": {
        "article_id": "https://farmpolicynews.illinois.edu/2024/01/ogallala-aquifer-depletion-threatening-rural-communities-ag/",
        "title": "Ogallala Aquifer Depletion Threatening Rural Communities & Ag",
        "snippet": "",
        "url": "https://farmpolicynews.illinois.edu/2024/01/ogallala-aquifer-depletion-threatening-rural-communities-ag/",
        "source": "Farm Policy News",
        "published_at": "01/31/2024, 08:00 AM, +0000 UTC",
        "wire": "water",
        "fetched_at": "2026-05-04T16:55:06.385933+00:00",
        "mention_text": null,
        "osm_display": null,
        "osm_type": null,
        "geocoded": false,
        "event_type": "groundwater_decline",
        "usgs_streamflow_site_no": null,
        "usgs_streamflow_name": null,
        "usgs_streamflow_dist_km": null,
        "usgs_streamflow_cfs": null,
        "usgs_gw_site_no": null,
        "usgs_gw_name": null,
        "usgs_gw_dist_km": null,
        "usgs_gw_depth_ft": null,
        "run_at": "2026-05-04T16:56:54.094658+00:00"
      }
    },
    {
      "type": "Feature",
      "geometry": null,
      "properties": {
        "article_id": "https://www.fox13memphis.com/news/city-of-germantown-partially-lifts-water-restriction-officials-say/article_201873be-29c7-11ee-917e-03484b5c4e3b.html",
        "title": "City of Germantown partially lifts water restriction, officials say",
        "snippet": "",
        "url": "https://www.fox13memphis.com/news/city-of-germantown-partially-lifts-water-restriction-officials-say/article_201873be-29c7-11ee-917e-03484b5c4e3b.html",
        "source": "FOX13 Memphis",
        "published_at": "07/24/2023, 07:00 AM, +0000 UTC",
        "wire": "water",
        "fetched_at": "2026-05-04T16:55:06.385933+00:00",
        "mention_text": null,
        "osm_display": null,
        "osm_type": null,
        "geocoded": false,
        "event_type": "utility_restriction",
        "usgs_streamflow_site_no": null,
        "usgs_streamflow_name": null,
        "usgs_streamflow_dist_km": null,
        "usgs_streamflow_cfs": null,
        "usgs_gw_site_no": null,
        "usgs_gw_name": null,
        "usgs_gw_dist_km": null,
        "usgs_gw_depth_ft": null,
        "run_at": "2026-05-04T16:56:54.094658+00:00"
      }
    },
    {
      "type": "Feature",
      "geometry": null,
      "properties": {
        "article_id": "https://www.desmoinesregister.com/story/news/2025/06/13/nitrates-in-water-iowa-central-iowa-water-ban-what-we-know/84184843007/",
        "title": "Why can't I water my lawn? What we know about Central Iowa Water Works' lawn watering ban",
        "snippet": "",
        "url": "https://www.desmoinesregister.com/story/news/2025/06/13/nitrates-in-water-iowa-central-iowa-water-ban-what-we-know/84184843007/",
        "source": "The Des Moines Register",
        "published_at": "06/13/2025, 07:00 AM, +0000 UTC",
        "wire": "water",
        "fetched_at": "2026-05-04T16:55:06.385933+00:00",
        "mention_text": null,
        "osm_display": null,
        "osm_type": null,
        "geocoded": false,
        "event_type": "outdoor_watering_ban",
        "usgs_streamflow_site_no": null,
        "usgs_streamflow_name": null,
        "usgs_streamflow_dist_km": null,
        "usgs_streamflow_cfs": null,
        "usgs_gw_site_no": null,
        "usgs_gw_name": null,
        "usgs_gw_dist_km": null,
        "usgs_gw_depth_ft": null,
        "run_at": "2026-05-04T16:56:54.094658+00:00"
      }
    },
    {
      "type": "Feature",
      "geometry": null,
      "properties": {
        "article_id": "https://californiaglobe.com/fr/just-the-facts-about-californias-new-household-water-rationing-law/",
        "title": "Just the Facts About California\u2019s New Household Water Rationing Law",
        "snippet": "",
        "url": "https://californiaglobe.com/fr/just-the-facts-about-californias-new-household-water-rationing-law/",
        "source": "California Globe",
        "published_at": "10/21/2021, 04:40 AM, +0000 UTC",
        "wire": "water",
        "fetched_at": "2026-05-04T16:55:06.385933+00:00",
        "mention_text": null,
        "osm_display": null,
        "osm_type": null,
        "geocoded": false,
        "event_type": "utility_restriction",
        "usgs_streamflow_site_no": null,
        "usgs_streamflow_name": null,
        "usgs_streamflow_dist_km": null,
        "usgs_streamflow_cfs": null,
        "usgs_gw_site_no": null,
        "usgs_gw_name": null,
        "usgs_gw_dist_km": null,
        "usgs_gw_depth_ft": null,
        "run_at": "2026-05-04T16:56:54.094658+00:00"
      }
    },
    {
      "type": "Feature",
      "geometry": null,
      "properties": {
        "article_id": "https://modernfarmer.com/2015/07/ogallala-aquifer-depletion/",
        "title": "Where Has All The Water Gone? - Ogallala Aquifer Depletion",
        "snippet": "",
        "url": "https://modernfarmer.com/2015/07/ogallala-aquifer-depletion/",
        "source": "Modern Farmer",
        "published_at": "07/30/2015, 07:00 AM, +0000 UTC",
        "wire": "water",
        "fetched_at": "2026-05-04T16:55:06.385933+00:00",
        "mention_text": null,
        "osm_display": null,
        "osm_type": null,
        "geocoded": false,
        "event_type": "groundwater_decline",
        "usgs_streamflow_site_no": null,
        "usgs_streamflow_name": null,
        "usgs_streamflow_dist_km": null,
        "usgs_streamflow_cfs": null,
        "usgs_gw_site_no": null,
        "usgs_gw_name": null,
        "usgs_gw_dist_km": null,
        "usgs_gw_depth_ft": null,
        "run_at": "2026-05-04T16:56:54.094658+00:00"
      }
    },
    {
      "type": "Feature",
      "geometry": null,
      "properties": {
        "article_id": "https://www.nytimes.com/2024/02/29/climate/groundwater-aquifer-depletion-courts.html",
        "title": "Court Rulings Give States New Power to Protect Groundwater (Published 2024)",
        "snippet": "",
        "url": "https://www.nytimes.com/2024/02/29/climate/groundwater-aquifer-depletion-courts.html",
        "source": "The New York Times",
        "published_at": "03/04/2024, 08:00 AM, +0000 UTC",
        "wire": "water",
        "fetched_at": "2026-05-04T16:55:06.385933+00:00",
        "mention_text": null,
        "osm_display": null,
        "osm_type": null,
        "geocoded": false,
        "event_type": "groundwater_decline",
        "usgs_streamflow_site_no": null,
        "usgs_streamflow_name": null,
        "usgs_streamflow_dist_km": null,
        "usgs_streamflow_cfs": null,
        "usgs_gw_site_no": null,
        "usgs_gw_name": null,
        "usgs_gw_dist_km": null,
        "usgs_gw_depth_ft": null,
        "run_at": "2026-05-04T16:56:54.094658+00:00"
      }
    },
    {
      "type": "Feature",
      "geometry": null,
      "properties": {
        "article_id": "https://www.hppr.org/2024-02-12/aquifer-depletion-not-just-southwest-kansas",
        "title": "Aquifer Depletion not Just Southwest Kansas",
        "snippet": "",
        "url": "https://www.hppr.org/2024-02-12/aquifer-depletion-not-just-southwest-kansas",
        "source": "HPPR",
        "published_at": "02/12/2024, 08:00 AM, +0000 UTC",
        "wire": "water",
        "fetched_at": "2026-05-04T16:55:06.385933+00:00",
        "mention_text": null,
        "osm_display": null,
        "osm_type": null,
        "geocoded": false,
        "event_type": "groundwater_decline",
        "usgs_streamflow_site_no": null,
        "usgs_streamflow_name": null,
        "usgs_streamflow_dist_km": null,
        "usgs_streamflow_cfs": null,
        "usgs_gw_site_no": null,
        "usgs_gw_name": null,
        "usgs_gw_dist_km": null,
        "usgs_gw_depth_ft": null,
        "run_at": "2026-05-04T16:56:54.094658+00:00"
      }
    },
    {
      "type": "Feature",
      "geometry": null,
      "properties": {
        "article_id": "https://www.kgou.org/science-technology-and-environment/2023-08-31/nationwide-analysis-of-water-wells-shows-groundwater-decline-in-oklahoma",
        "title": "Nationwide analysis of water wells shows groundwater decline in Oklahoma",
        "snippet": "",
        "url": "https://www.kgou.org/science-technology-and-environment/2023-08-31/nationwide-analysis-of-water-wells-shows-groundwater-decline-in-oklahoma",
        "source": "KGOU",
        "published_at": "08/31/2023, 07:00 AM, +0000 UTC",
        "wire": "water",
        "fetched_at": "2026-05-04T16:55:06.385933+00:00",
        "mention_text": null,
        "osm_display": null,
        "osm_type": null,
        "geocoded": false,
        "event_type": "groundwater_decline",
        "usgs_streamflow_site_no": null,
        "usgs_streamflow_name": null,
        "usgs_streamflow_dist_km": null,
        "usgs_streamflow_cfs": null,
        "usgs_gw_site_no": null,
        "usgs_gw_name": null,
        "usgs_gw_dist_km": null,
        "usgs_gw_depth_ft": null,
        "run_at": "2026-05-04T16:56:54.094658+00:00"
      }
    },
    {
      "type": "Feature",
      "geometry": null,
      "properties": {
        "article_id": "https://www.ecowatch.com/puerto-rico-drought-water-2646305213.html",
        "title": "Puerto Rico Drought Leaves 140,000 Without Running Water",
        "snippet": "",
        "url": "https://www.ecowatch.com/puerto-rico-drought-water-2646305213.html",
        "source": "EcoWatch",
        "published_at": "07/01/2020, 07:00 AM, +0000 UTC",
        "wire": "water",
        "fetched_at": "2026-05-04T16:55:06.385933+00:00",
        "mention_text": null,
        "osm_display": null,
        "osm_type": null,
        "geocoded": false,
        "event_type": "drought_water_impact",
        "usgs_streamflow_site_no": null,
        "usgs_streamflow_name": null,
        "usgs_streamflow_dist_km": null,
        "usgs_streamflow_cfs": null,
        "usgs_gw_site_no": null,
        "usgs_gw_name": null,
        "usgs_gw_dist_km": null,
        "usgs_gw_depth_ft": null,
        "run_at": "2026-05-04T16:56:54.094658+00:00"
      }
    },
    {
      "type": "Feature",
      "geometry": null,
      "properties": {
        "article_id": "https://agrilifetoday.tamu.edu/2021/03/19/ogallala-aquifer-situation-to-manage-not-problem-to-solve/",
        "title": "Ogallala Aquifer depletion: Situation to manage, not problem to solve",
        "snippet": "",
        "url": "https://agrilifetoday.tamu.edu/2021/03/19/ogallala-aquifer-situation-to-manage-not-problem-to-solve/",
        "source": "AgriLife Today",
        "published_at": "03/19/2021, 07:00 AM, +0000 UTC",
        "wire": "water",
        "fetched_at": "2026-05-04T16:55:06.385933+00:00",
        "mention_text": null,
        "osm_display": null,
        "osm_type": null,
        "geocoded": false,
        "event_type": "groundwater_decline",
        "usgs_streamflow_site_no": null,
        "usgs_streamflow_name": null,
        "usgs_streamflow_dist_km": null,
        "usgs_streamflow_cfs": null,
        "usgs_gw_site_no": null,
        "usgs_gw_name": null,
        "usgs_gw_dist_km": null,
        "usgs_gw_depth_ft": null,
        "run_at": "2026-05-04T16:56:54.094658+00:00"
      }
    },
    {
      "type": "Feature",
      "geometry": null,
      "properties": {
        "article_id": "https://www.foodbible.com/fast-food/mcdonalds/mcdonalds-debunks-water-ban-happy-meals-online-anger-218089-20251203",
        "title": "McDonald's addresses Happy Meal water ban after rising customer frustration",
        "snippet": "",
        "url": "https://www.foodbible.com/fast-food/mcdonalds/mcdonalds-debunks-water-ban-happy-meals-online-anger-218089-20251203",
        "source": "FOODbible",
        "published_at": "12/03/2025, 08:00 AM, +0000 UTC",
        "wire": "water",
        "fetched_at": "2026-05-04T16:55:06.385933+00:00",
        "mention_text": null,
        "osm_display": null,
        "osm_type": null,
        "geocoded": false,
        "event_type": "water_scarcity_event",
        "usgs_streamflow_site_no": null,
        "usgs_streamflow_name": null,
        "usgs_streamflow_dist_km": null,
        "usgs_streamflow_cfs": null,
        "usgs_gw_site_no": null,
        "usgs_gw_name": null,
        "usgs_gw_dist_km": null,
        "usgs_gw_depth_ft": null,
        "run_at": "2026-05-04T16:56:54.094658+00:00"
      }
    },
    {
      "type": "Feature",
      "geometry": null,
      "properties": {
        "article_id": "https://www.theguardian.com/world/2014/aug/04/toledo-water-drinking-ban-lifted-lake-erie-algae",
        "title": "Toledo mayor lifts drinking water ban affecting 400,000 residents | US news",
        "snippet": "",
        "url": "https://www.theguardian.com/world/2014/aug/04/toledo-water-drinking-ban-lifted-lake-erie-algae",
        "source": "The Guardian",
        "published_at": "08/04/2014, 07:00 AM, +0000 UTC",
        "wire": "water",
        "fetched_at": "2026-05-04T16:55:06.385933+00:00",
        "mention_text": null,
        "osm_display": null,
        "osm_type": null,
        "geocoded": false,
        "event_type": "water_scarcity_event",
        "usgs_streamflow_site_no": null,
        "usgs_streamflow_name": null,
        "usgs_streamflow_dist_km": null,
        "usgs_streamflow_cfs": null,
        "usgs_gw_site_no": null,
        "usgs_gw_name": null,
        "usgs_gw_dist_km": null,
        "usgs_gw_depth_ft": null,
        "run_at": "2026-05-04T16:56:54.094658+00:00"
      }
    },
    {
      "type": "Feature",
      "geometry": null,
      "properties": {
        "article_id": "https://www.herald-dispatch.com/news/making-it-work-two-weeks-into-water-ban-wayne-residents-wait-for-order-to-be/article_c8cd5c5d-76d8-40f4-a197-92a7781b7dc6.html",
        "title": "'Making it work:' Two weeks into water ban, Wayne residents wait for order to be lifted",
        "snippet": "",
        "url": "https://www.herald-dispatch.com/news/making-it-work-two-weeks-into-water-ban-wayne-residents-wait-for-order-to-be/article_c8cd5c5d-76d8-40f4-a197-92a7781b7dc6.html",
        "source": "herald-dispatch.com",
        "published_at": "01/30/2026, 08:00 AM, +0000 UTC",
        "wire": "water",
        "fetched_at": "2026-05-04T16:55:06.385933+00:00",
        "mention_text": null,
        "osm_display": null,
        "osm_type": null,
        "geocoded": false,
        "event_type": "water_scarcity_event",
        "usgs_streamflow_site_no": null,
        "usgs_streamflow_name": null,
        "usgs_streamflow_dist_km": null,
        "usgs_streamflow_cfs": null,
        "usgs_gw_site_no": null,
        "usgs_gw_name": null,
        "usgs_gw_dist_km": null,
        "usgs_gw_depth_ft": null,
        "run_at": "2026-05-04T16:56:54.094658+00:00"
      }
    },
    {
      "type": "Feature",
      "geometry": null,
      "properties": {
        "article_id": "https://www.reviewjournal.com/news/politics-and-government/nevada/nevada-bans-new-residential-wells-in-pahrump-over-groundwater-decline/",
        "title": "Nevada bans new residential wells in Pahrump over groundwater decline",
        "snippet": "",
        "url": "https://www.reviewjournal.com/news/politics-and-government/nevada/nevada-bans-new-residential-wells-in-pahrump-over-groundwater-decline/",
        "source": "Las Vegas Review-Journal",
        "published_at": "12/21/2017, 08:00 AM, +0000 UTC",
        "wire": "water",
        "fetched_at": "2026-05-04T16:55:06.385933+00:00",
        "mention_text": null,
        "osm_display": null,
        "osm_type": null,
        "geocoded": false,
        "event_type": "groundwater_decline",
        "usgs_streamflow_site_no": null,
        "usgs_streamflow_name": null,
        "usgs_streamflow_dist_km": null,
        "usgs_streamflow_cfs": null,
        "usgs_gw_site_no": null,
        "usgs_gw_name": null,
        "usgs_gw_dist_km": null,
        "usgs_gw_depth_ft": null,
        "run_at": "2026-05-04T16:56:54.094658+00:00"
      }
    },
    {
      "type": "Feature",
      "geometry": null,
      "properties": {
        "article_id": "https://www.globalissues.org/news/2013/06/09/16761",
        "title": "Making a Business Out of Water Rationing",
        "snippet": "",
        "url": "https://www.globalissues.org/news/2013/06/09/16761",
        "source": "Global Issues.org",
        "published_at": "06/09/2013, 07:00 AM, +0000 UTC",
        "wire": "water",
        "fetched_at": "2026-05-04T16:55:06.385933+00:00",
        "mention_text": null,
        "osm_display": null,
        "osm_type": null,
        "geocoded": false,
        "event_type": "utility_restriction",
        "usgs_streamflow_site_no": null,
        "usgs_streamflow_name": null,
        "usgs_streamflow_dist_km": null,
        "usgs_streamflow_cfs": null,
        "usgs_gw_site_no": null,
        "usgs_gw_name": null,
        "usgs_gw_dist_km": null,
        "usgs_gw_depth_ft": null,
        "run_at": "2026-05-04T16:56:54.094658+00:00"
      }
    },
    {
      "type": "Feature",
      "geometry": null,
      "properties": {
        "article_id": "https://www.msn.com/en-us/weather/topstories/the-truth-about-groundwater-decline-that-should-trigger-concern-and-fear/ar-AA221eo8",
        "title": "The truth about groundwater decline that should trigger concern and fear",
        "snippet": "",
        "url": "https://www.msn.com/en-us/weather/topstories/the-truth-about-groundwater-decline-that-should-trigger-concern-and-fear/ar-AA221eo8",
        "source": "MSN",
        "published_at": "04/29/2026, 03:54 PM, +0000 UTC",
        "wire": "water",
        "fetched_at": "2026-05-04T16:55:06.385933+00:00",
        "mention_text": null,
        "osm_display": null,
        "osm_type": null,
        "geocoded": false,
        "event_type": "groundwater_decline",
        "usgs_streamflow_site_no": null,
        "usgs_streamflow_name": null,
        "usgs_streamflow_dist_km": null,
        "usgs_streamflow_cfs": null,
        "usgs_gw_site_no": null,
        "usgs_gw_name": null,
        "usgs_gw_dist_km": null,
        "usgs_gw_depth_ft": null,
        "run_at": "2026-05-04T16:56:54.094658+00:00"
      }
    }
  ],
  "metadata": {
    "wire": "water",
    "last_updated": "2026-05-04T17:30:13.239166+00:00",
    "total_features": 22
  }
}